name,street,city,zipCode,phone,email,website,fax
"New York Community Bancorp, Inc.",4116 Barnett Park,Yuracyacu,,+51 (318) 213-3480,srowbrey0@baidu.com,https://blogger.com,+55 (580) 896-2133
Autobytel Inc.,9270 Burrows Trail,Sukaratu,,+62 (517) 189-3564,fpitkin1@topsy.com,http://yelp.com,+55 (989) 674-0768
Addus HomeCare Corporation,9 Birchwood Alley,Leles,,+62 (630) 236-4981,klight2@dailymail.co.uk,https://miitbeian.gov.cn,+351 (161) 251-3744
Silver Run Acquisition Corporation II,52406 Reinke Avenue,Luoqiao,,+86 (804) 796-2963,lhultberg3@mail.ru,https://hubpages.com,+1 (214) 332-5731
CNB Financial Corporation,34157 Mandrake Point,Nicola Town,,+1 (816) 761-1523,emallam4@bizjournals.com,http://360.cn,+30 (181) 528-1669
"China Fund, Inc. (The)",9326 Iowa Road,Novoanninskiy,403964,+7 (793) 236-9622,nseivwright5@ucla.edu,https://biglobe.ne.jp,+351 (632) 959-1615
"Park City Group, Inc.",45 Northfield Lane,Poligny,39804 CEDEX,+33 (822) 157-9176,cgiblin6@symantec.com,http://mediafire.com,+86 (805) 509-3472
First Trust Indxx Global Natural Resources Income ETF,96915 Ridge Oak Alley,Novais,3660-410,+351 (599) 124-4946,jmoule7@github.com,http://princeton.edu,+86 (889) 452-2294
Momo Inc.,8 Graceland Road,Zhvanets,,+380 (582) 556-1647,mcater8@1688.com,http://live.com,+86 (370) 106-5366
Hancock Holding Company,645 Arizona Road,Pochuta,04008,+502 (295) 699-8028,jwatmough9@scribd.com,https://npr.org,+55 (892) 672-2717
BOK Financial Corporation,4718 Grasskamp Court,Monino,142450,+7 (505) 699-7540,phuska@pcworld.com,https://japanpost.jp,+86 (377) 255-2857
"Kinder Morgan, Inc.",8781 Algoma Place,Des Moines,50981,+1 (515) 389-7339,aclementuccib@discuz.net,http://biglobe.ne.jp,+86 (892) 645-5996
John Hancock Tax Advantaged Dividend Income Fund,9986 Havey Pass,Stonewall,H9J,+1 (449) 597-4928,sgladyerc@furl.net,http://naver.com,+33 (602) 644-3503
Ferroglobe PLC,8345 Raven Court,San Cristóbal,11511,+1 (576) 428-2284,agilbardd@rakuten.co.jp,https://goo.gl,+92 (551) 455-6441
"Foundation Medicine, Inc.",16221 Rockefeller Place,Donglinxi,,+86 (870) 947-8554,jgillbeye@zimbio.com,https://odnoklassniki.ru,+380 (380) 256-8231
"ASV Holdings, Inc.",61384 Raven Place,Bularit,2302,+63 (734) 629-2080,dmuskf@google.co.uk,https://is.gd,+62 (545) 451-0051
iPath US Treasury 10-year Bull ETN,1395 Longview Park,Bang Phae,70160,+66 (228) 839-7158,zpavlishchevg@usa.gov,http://furl.net,+962 (892) 680-6928
AllianzGI Convertible & Income Fund II,8 Beilfuss Pass,Valeirinha,3070-435,+351 (543) 664-5019,pkebellh@de.vu,http://purevolume.com,+7 (748) 904-6385
Invesco High Income Trust II,64188 Towne Avenue,Shevchenkove,,+380 (528) 376-6569,fscandwrighti@paypal.com,https://w3.org,+63 (128) 875-0286
WPCS International Incorporated,93 Pankratz Drive,Oesain,,+62 (869) 943-6609,mvellenderj@diigo.com,http://cocolog-nifty.com,+86 (160) 709-1601
Allstate Corporation (The),9929 7th Center,Gaoling,,+86 (293) 150-2085,asiggink@skype.com,https://etsy.com,+62 (505) 733-1256
"JAKKS Pacific, Inc.",6 Montana Center,Kashihara,769-0105,+81 (330) 959-3962,hknightleyl@mac.com,http://google.it,+7 (358) 591-1050
Citizens & Northern Corp,087 Jackson Drive,Genengan Kulon,,+62 (894) 296-4840,hhugettm@wikia.com,http://behance.net,+33 (831) 688-9131
Erie Indemnity Company,3 Magdeline Park,La Bélgica,,+591 (916) 140-3682,gpearlen@ftc.gov,https://php.net,+62 (284) 145-6186
"iRhythm Technologies, Inc.",4822 South Place,Jitian,,+86 (923) 155-7943,lschriro@webs.com,http://lulu.com,+7 (796) 243-7334
DISH Network Corporation,0 Oak Hill,Valle San Francisco,,+505 (178) 317-5417,mmcgrailp@cloudflare.com,https://fc2.com,+48 (816) 966-2437
"SciClone Pharmaceuticals, Inc.",67 Kinsman Hill,Dobříš,263 01,+420 (235) 831-3753,kglancyq@buzzfeed.com,https://squarespace.com,+86 (105) 140-7750
BHP Billiton plc,8079 Kensington Park,Promyshlennaya,652380,+7 (997) 712-0149,jlohmeyerr@independent.co.uk,https://squarespace.com,+86 (487) 457-3132
Allstate Corporation (The),03093 Tennessee Hill,Shalizhai,,+86 (317) 140-1771,gklimass@home.pl,https://blogger.com,+7 (300) 677-9230
"HopFed Bancorp, Inc.",9 Blackbird Pass,Sanok,38-512,+48 (946) 692-2714,mgureryt@sciencedirect.com,http://dmoz.org,+374 (197) 229-4602
"Tile Shop Hldgs, Inc.",5 Lighthouse Bay Court,Krajan Tanjungrejo,,+62 (711) 170-3941,asayloru@telegraph.co.uk,https://prweb.com,+27 (599) 913-2364
Pharmerica Corporation,7 Clemons Road,Aleg,,+222 (218) 156-8992,rcopcuttv@cnn.com,http://loc.gov,+86 (903) 429-2595
Seanergy Maritime Holdings Corp,61471 Cardinal Road,Gaopai,,+86 (400) 774-7207,wcopasw@purevolume.com,https://baidu.com,+507 (698) 335-5846
"W.W. Grainger, Inc.",434 Dottie Drive,Biała Piska,12-230,+48 (489) 655-5714,gdenisovichx@zimbio.com,http://webnode.com,+33 (181) 183-8163
Atrion Corporation,96 Knutson Junction,Magnitogorsk,455051,+7 (370) 682-9583,xvanezisy@ted.com,http://howstuffworks.com,+84 (496) 244-0348
"Engility Holdings, Inc.",7726 Marcy Pass,Recife,50000-000,+55 (731) 864-6226,aparminterz@usatoday.com,http://accuweather.com,+86 (654) 993-3301
"ABAXIS, Inc.",142 Killdeer Circle,Kambaxoi,,+86 (978) 647-5081,kerie10@last.fm,https://1688.com,+20 (506) 645-6072
Cigna Corporation,4965 Ronald Regan Way,Na Di,25220,+66 (830) 977-3394,scayzer11@guardian.co.uk,https://ustream.tv,+55 (707) 703-3038
"Truett-Hurst, Inc.",869 Summerview Center,Fort Abbās,62021,+92 (538) 622-2228,gspeddin12@eepurl.com,https://cnn.com,+86 (662) 862-4001
Southern Copper Corporation,35096 Weeping Birch Plaza,Zābolī,,+98 (950) 399-8775,jceles13@foxnews.com,https://wunderground.com,+504 (973) 519-6774
Emerson Electric Company,98978 8th Pass,Sumber Tengah,,+62 (904) 287-2176,edriver14@google.co.uk,http://tmall.com,+55 (358) 138-6316
"Warrior Met Coal, Inc.",619 Grayhawk Junction,Haiyanmiao,,+86 (118) 324-9544,gshellshear15@nature.com,https://nationalgeographic.com,+55 (496) 594-0476
"Taubman Centers, Inc.",76 Hansons Center,Paine,,+56 (492) 882-3542,crosenfield16@prweb.com,https://pbs.org,+86 (921) 297-3975
"Children's Place, Inc. (The)",901 Mccormick Terrace,Pleasant Point,7947,+64 (102) 768-0221,rtottle17@google.co.uk,http://mac.com,+86 (404) 625-6734
Nuveen Select Tax Free Income Portfolio III,3 Fulton Point,Sidaurip,,+62 (266) 160-2988,pkenington18@soundcloud.com,https://technorati.com,+420 (875) 312-0538
Pitney Bowes Inc.,25 Elmside Pass,Caracol,,+509 (132) 398-1492,cmckimm19@flavors.me,https://phoca.cz,+54 (307) 767-8905
Gaming Partners International Corporation,137 Mayer Lane,Kafr Miṣr,,+972 (898) 852-7782,breicherz1a@hatena.ne.jp,https://blinklist.com,+86 (848) 295-9366
"AnaptysBio, Inc.",80 Bluejay Hill,Muan,,+82 (654) 145-3106,blago1b@slate.com,https://digg.com,+33 (981) 328-4073
"Coeur Mining, Inc.",39 Shopko Pass,Tagnanan,6519,+63 (259) 108-6743,btrill1c@jigsy.com,https://bigcartel.com,+86 (394) 291-9976
iShares GNMA Bond ETF,5 Graceland Avenue,Madingou,,+242 (564) 299-8264,tchieze1d@nymag.com,http://shutterfly.com,+62 (201) 244-8589
Quinpario Acquisition Corp. 2,89566 Holy Cross Hill,Grand Rapids,49518,+1 (616) 843-2299,pgayden1e@msu.edu,http://illinois.edu,+62 (320) 234-5180
Vince Holding Corp.,0674 Rigney Avenue,Kragan,,+62 (448) 254-7005,mmarconi1f@imageshack.us,http://free.fr,+1 (795) 487-4887
"Rubicon Technology, Inc.",08 Petterle Point,Montesson,78364 CEDEX,+33 (446) 414-7348,gmalafe1g@reverbnation.com,https://sakura.ne.jp,+371 (270) 127-1116
Cintas Corporation,069 Meadow Vale Circle,Zhengyu,,+86 (180) 497-7321,dbennell1h@cdbaby.com,http://printfriendly.com,+46 (422) 944-1408
"M/I Homes, Inc.",393 Morningstar Pass,Komsomolsk,,+380 (157) 365-9886,astonier1i@miibeian.gov.cn,http://mtv.com,+351 (938) 311-4619
"Bioptix, Inc",106 Troy Plaza,Mawlamyine,,+95 (955) 205-0386,igoby1j@spiegel.de,http://amazon.com,+57 (998) 631-6027
Natural Resource Partners LP,50036 Orin Court,Matsuyama,999-3146,+81 (206) 553-7311,nweigh1k@oakley.com,http://mayoclinic.com,+380 (113) 339-0246
Annaly Capital Management Inc,55 Green Alley,Dawan,,+62 (634) 641-4110,avlahos1l@indiatimes.com,https://goo.ne.jp,+976 (734) 254-6937
Northrim BanCorp Inc,37 Ruskin Junction,Christiana,2680,+27 (424) 360-2961,mkirman1m@cbslocal.com,https://twitter.com,+380 (147) 912-3537
"Gores Holdings II, Inc.",36 Commercial Junction,Dajianchang,,+86 (692) 479-8433,tcookman1n@usda.gov,http://comcast.net,+970 (897) 497-8660
BalckRock Taxable Municipal Bond Trust,2473 Rockefeller Hill,União dos Palmares,57800-000,+55 (573) 103-9873,ystrotton1o@list-manage.com,http://cbslocal.com,+93 (302) 188-4457
Amerco,09 Duke Road,Järna,153 38,+46 (894) 364-9967,vdeeley1p@adobe.com,https://mail.ru,+269 (626) 135-7348
Comcast Corporation,38 Northfield Trail,Hondo,503-0232,+81 (166) 139-6693,relsop1q@wp.com,https://xinhuanet.com,+373 (863) 818-5494
"Synthetic Fixed-Income Securities, Inc.",9691 Mcbride Court,Dongling,,+86 (287) 198-7648,qheadon1r@domainmarket.com,https://home.pl,+48 (406) 659-5696
"CDK Global, Inc.",48 Oxford Place,Gierłoż,01-517,+48 (904) 546-6118,hburgott1s@youtube.com,http://creativecommons.org,+420 (725) 423-7004
"Ambac Financial Group, Inc.",52370 Sommers Street,Växjö,351 88,+46 (402) 582-5234,mfreebury1t@acquirethisname.com,https://is.gd,+86 (840) 251-0412
"Cass Information Systems, Inc",231 David Way,Dedza,,+265 (121) 622-2925,mfoskin1u@vk.com,http://slate.com,+376 (195) 288-1963
Superconductor Technologies Inc.,75 Oneill Street,Pagsañgahan,4324,+63 (592) 859-8280,gstockhill1v@topsy.com,https://sphinn.com,+381 (564) 177-8146
RXi Pharmaceuticals Corporation,48236 Carpenter Lane,Leigao,,+86 (732) 382-4182,dpickance1w@intel.com,http://tripod.com,+60 (615) 432-9174
American States Water Company,999 4th Trail,Zaytā Jammā‘īn,,+970 (788) 724-9616,oimlach1x@weebly.com,https://phpbb.com,+380 (730) 971-7710
Calgon Carbon Corporation,420 Calypso Lane,Balabac,5307,+63 (615) 818-6019,browston1y@wikimedia.org,https://ovh.net,+351 (475) 319-4850
"Group 1 Automotive, Inc.",26 Wayridge Terrace,Montceau-les-Mines,71309 CEDEX,+33 (980) 366-3178,gpepineaux1z@si.edu,http://comsenz.com,+86 (500) 327-2404
Select Medical Holdings Corporation,1520 Canary Center,Chengnan,,+86 (585) 325-8172,nsimcock20@reference.com,http://java.com,+1 (915) 382-5363
Lindblad Expeditions Holdings Inc. ,7214 Ronald Regan Circle,Zhujiapu,,+86 (946) 461-6620,vplaid21@1688.com,https://google.ca,+380 (231) 610-0649
"aTyr Pharma, Inc.",8 Autumn Leaf Lane,Lakinsk,662133,+7 (315) 853-3874,amoralas22@godaddy.com,http://reddit.com,+66 (474) 797-8058
Allstate Corporation (The),50320 Becker Alley,Novokuybyshevsk,446209,+7 (497) 419-7405,bhuffey23@google.nl,http://yale.edu,+52 (101) 168-6716
FIRST REPUBLIC BANK,15 Lakewood Parkway,Vel’sk,165155,+7 (449) 555-8246,mseydlitz24@redcross.org,http://nih.gov,+387 (613) 293-8117
"Niagara Mohawk Holdings, Inc.",776 Valley Edge Junction,Yangzhuang,,+86 (322) 835-1622,rguinane25@gravatar.com,http://amazon.de,+63 (483) 271-7676
"New Germany Fund, Inc. (The)",862 Northwestern Terrace,Jiaozuo,,+86 (966) 308-3146,aborkett26@sphinn.com,https://nba.com,+376 (699) 598-7875
"NextEra Energy, Inc.",461 Roxbury Avenue,Saint Lucia,SLZ,+356 (787) 696-7903,icharkham27@comsenz.com,http://bbc.co.uk,+86 (684) 927-2129
Toro Company (The),0 Annamark Alley,Ōtsuki,402-0056,+81 (814) 668-4132,cbothwell28@networkadvertising.org,http://sohu.com,+62 (303) 837-9469
LendingClub Corporation,6484 Miller Junction,Sambongmulyo,,+62 (604) 707-3241,tsteckings29@nbcnews.com,http://umn.edu,+86 (847) 508-8453
American Outdoor Brands Corporation,96 Kings Circle,Quốc Oai,,+84 (393) 411-5658,ibeaten2a@washingtonpost.com,https://google.ca,+380 (451) 607-5635
"Firsthand Technology Value Fund, Inc.",41 Maryland Road,Yunxiang,,+86 (860) 708-1735,ahair2b@clickbank.net,https://guardian.co.uk,+351 (960) 445-3555
"Heidrick & Struggles International, Inc.",8114 Marcy Pass,Drochia,MD-5233,+373 (613) 517-4596,bsamet2c@sourceforge.net,https://godaddy.com,+81 (318) 601-0879
Annaly Capital Management Inc,2 Roxbury Road,Jianfeng,,+86 (422) 366-1902,ncordner2d@skyrock.com,https://csmonitor.com,+33 (708) 338-9673
BlackRock Science and Technology Trust,434 Porter Park,Bang Bo,10560,+66 (201) 174-1523,jburchatt2e@blogtalkradio.com,http://time.com,+53 (934) 998-5770
RMG Networks Holding Corporation,54 Prairieview Trail,Balaklava,,+380 (636) 430-0281,lgladman2f@forbes.com,https://si.edu,+66 (101) 805-0317
Noble Corporation,270 Green Court,João Monlevade,35930-000,+55 (553) 784-0766,mkuhne2g@tuttocitta.it,http://bloglovin.com,+351 (240) 173-3942
YPF Sociedad Anonima,8 Eliot Road,Muhur,,+86 (973) 252-0492,bmaddinon2h@house.gov,http://marriott.com,+62 (840) 848-2178
Capital One Financial Corporation,95662 Daystar Road,Mo I Rana,8607,+47 (761) 193-4393,esinncock2i@fc2.com,http://acquirethisname.com,+994 (976) 292-3854
Wells Fargo & Company,11 Norway Maple Drive,Qiansuo,,+86 (887) 129-0164,jjosipovic2j@shinystat.com,http://smugmug.com,+51 (253) 602-4123
"Entegris, Inc.",76 Sycamore Center,Lixu,,+86 (358) 989-7384,phugonneau2k@furl.net,https://diigo.com,+7 (347) 983-2758
Central Valley Community Bancorp,48051 Green Ridge Road,Ancasti,4701,+54 (937) 523-9824,agrzegorzewski2l@aboutads.info,https://blog.com,+33 (210) 403-8931
Principal Price Setters Index ETF,61 Hayes Terrace,Sioux City,51105,+1 (712) 852-4421,tkubacki2m@cocolog-nifty.com,http://globo.com,+95 (982) 989-8543
GasLog LP.,9330 Redwing Pass,Asenovgrad,4219,+359 (456) 331-8093,hwestoll2n@weebly.com,http://dell.com,+62 (500) 639-3157
"DST Systems, Inc.",7272 Columbus Park,Hanjiashu,,+86 (419) 763-6764,mboscott2o@gravatar.com,http://fc2.com,+1 (254) 286-2894
"Entegris, Inc.",97578 Crowley Trail,Tlogoagung,,+62 (977) 291-3305,nrisdale2p@google.co.jp,http://alibaba.com,+62 (753) 500-9747
"Eiger BioPharmaceuticals, Inc.",75795 Chive Park,Bancak Wetan,,+62 (517) 674-8617,aody2q@live.com,https://github.io,+235 (879) 959-1288
"Pulmatrix, Inc.",62812 Rutledge Way,Dauphin,R7N,+1 (400) 943-5781,srenoden2r@yellowbook.com,https://slideshare.net,+7 (179) 890-2209
"Genesis Energy, L.P.",903 Grim Parkway,Baturaden,,+62 (791) 175-5831,btarver2s@thetimes.co.uk,https://timesonline.co.uk,+1 (202) 760-4724
Egalet Corporation,69512 Magdeline Terrace,Cibingbin,,+62 (664) 709-2759,lrebbeck2t@seesaa.net,http://samsung.com,+420 (846) 341-7830
Canterbury Park Holding Corporation,3 Prairie Rose Place,Santa Ana,4631,+54 (402) 972-6168,bhanscomb2u@wikispaces.com,http://t-online.de,+86 (218) 705-7855
Artesian Resources Corporation,2 Monument Parkway,Sopo,,+62 (627) 305-1061,tferrick2v@usda.gov,http://technorati.com,+31 (831) 546-7345
Banco Santander Brasil SA,41 Dottie Park,Kebunkelapa,,+62 (295) 468-2468,rmault2w@virginia.edu,https://yandex.ru,+48 (797) 473-1225
Fabrinet,914 Autumn Leaf Lane,Soba,,+234 (408) 267-2513,adibiagi2x@uiuc.edu,http://opera.com,+62 (198) 168-5172
TE Connectivity Ltd.,657 Upham Road,Alingsås,441 17,+46 (954) 211-4495,jkamien2y@craigslist.org,https://latimes.com,+86 (582) 599-5328
"Donegal Group, Inc.",24060 Birchwood Center,Gävle,806 31,+46 (629) 924-4976,mshevlane2z@theatlantic.com,http://diigo.com,+62 (896) 724-5877
"Schweitzer-Mauduit International, Inc.",72 Milwaukee Street,Ampara,32000,+94 (593) 945-5188,bespasa30@cbsnews.com,http://theguardian.com,+351 (150) 460-7234
Teva Pharmaceutical Industries Limited,15 Badeau Road,Yinghua,,+86 (395) 412-4434,bcopes31@latimes.com,https://imgur.com,+57 (164) 180-3368
Bank of America Corporation,1 Fulton Place,Aurillac,15004 CEDEX,+33 (648) 558-1073,adagworthy32@163.com,https://pen.io,+233 (726) 911-4166
"Expedia, Inc.",4 Northridge Crossing,Krajan Timur Suger Kidul,,+62 (598) 980-7814,pmaryott33@bing.com,https://ca.gov,+976 (799) 118-5115
Jewett-Cameron Trading Company,57 Summer Ridge Drive,Novosmolinskiy,606084,+7 (895) 797-8109,lvolleth34@wikipedia.org,http://flavors.me,+420 (230) 386-8215
Bank of America Corporation,84039 Crownhardt Hill,Cangkuang,,+62 (620) 283-1319,abroun35@ameblo.jp,https://hao123.com,+54 (337) 492-8506
"SenesTech, Inc.",7 Magdeline Terrace,Phanat Nikhom,20140,+66 (189) 849-9358,ideschlein36@diigo.com,http://bing.com,+57 (900) 136-4208
Baker Hughes Incorporated,3 Independence Point,Ndano,,+62 (730) 508-9331,jschooling37@xing.com,http://examiner.com,+389 (120) 593-1561
RLI Corp.,1 Evergreen Terrace,Sevilla,41015,+34 (207) 314-4481,anock38@house.gov,http://typepad.com,+1 (862) 199-9436
"Banc of California, Inc.",506 Meadow Ridge Center,Ayabe,708-1104,+81 (448) 963-2525,rbaitman39@wikispaces.com,http://wp.com,+86 (298) 881-5321
"Planet Payment, Inc.",02972 Petterle Trail,Lewokluok,,+62 (453) 119-8055,ldurrell3a@icio.us,http://go.com,+63 (939) 964-5126
CME Group Inc.,85155 Dayton Point,Durham,27717,+1 (919) 399-7661,icalfe3b@hostgator.com,http://storify.com,+86 (516) 463-4030
Lions Gate Entertainment Corporation,5 Bartillon Road,San Angelo,76905,+1 (325) 826-1136,nallcroft3c@elegantthemes.com,https://hud.gov,+30 (151) 775-1302
Resolute Forest Products Inc.,9 Pond Terrace,Rio das Pedras,13390-000,+55 (993) 978-3153,hcurnnokk3d@ebay.co.uk,https://photobucket.com,+51 (233) 613-3016
Special Opportunities Fund Inc.,519 Stone Corner Avenue,Vidual,3220-350,+351 (835) 883-3061,akenner3e@chicagotribune.com,http://walmart.com,+355 (349) 591-3697
Allegion plc,7 Thierer Junction,Nubl,,+963 (476) 839-7215,mitzkovwich3f@symantec.com,http://irs.gov,+351 (265) 484-8747
"Liberty Expedia Holdings, Inc.",97910 Maryland Terrace,Apóstoles,3358,+54 (658) 953-4689,alefriec3g@webs.com,http://thetimes.co.uk,+234 (361) 160-8481
Callon Petroleum Company,78618 Lake View Terrace,Rudnyy,,+7 (794) 578-1492,afley3h@go.com,https://senate.gov,+86 (635) 803-2669
CrossAmerica Partners LP,1209 Lighthouse Bay Crossing,Akouda,,+216 (546) 629-7490,glawday3i@businessinsider.com,https://so-net.ne.jp,+86 (687) 575-8237
"NVR, Inc.",138 Atwood Junction,Mashan,,+86 (421) 481-1276,hhenrichs3j@networkadvertising.org,http://nbcnews.com,+33 (670) 306-1170
Nuveen Municipal 2021 Target Term Fund,94869 Sugar Center,Nyūzen,939-0751,+81 (164) 844-2078,morum3k@google.fr,http://godaddy.com,+967 (150) 315-3588
"Source Capital, Inc.",1077 Golf Trail,Tianqian,,+86 (905) 802-5705,hlingley3l@quantcast.com,http://apache.org,+86 (786) 955-1829
Brunswick Corporation,3 Saint Paul Road,Hufang,,+86 (743) 847-4997,smottinelli3m@bandcamp.com,https://cloudflare.com,+385 (297) 203-4063
Brookfield DTLA Inc.,24 South Lane,Sundbyberg,174 49,+46 (194) 596-1117,pburfoot3n@shop-pro.jp,http://i2i.jp,+58 (266) 539-0404
"LegacyTexas Financial Group, Inc.",732 Eagle Crest Avenue,Täby,183 77,+46 (948) 287-8137,trowley3o@paginegialle.it,https://msn.com,+63 (547) 794-4056
ABM Industries Incorporated,6196 Helena Pass,München,80995,+49 (862) 257-4561,bbyrth3p@etsy.com,http://fotki.com,+48 (735) 856-9677
"Blackbaud, Inc.",84 Lighthouse Bay Parkway,Ashgabat,,+993 (394) 661-9754,jfusco3q@blogger.com,http://dailymotion.com,+963 (996) 895-5998
"Suburban Propane Partners, L.P.",9 American Circle,Jamaica,11470,+1 (212) 767-3945,aaizik3r@shutterfly.com,http://alibaba.com,+63 (671) 851-4930
Atlantica Yield plc,22 Bultman Center,Konosha,164010,+7 (791) 541-2570,lorourke3s@twitpic.com,http://soup.io,+86 (772) 694-1019
Tuesday Morning Corp.,2755 Dapin Crossing,Kryva Hora,,+380 (422) 786-9530,bsagg3t@noaa.gov,https://wunderground.com,+963 (352) 655-1421
Tesco Corporation,3700 Sutherland Parkway,Kālia,7521,+880 (729) 951-9462,kchampkins3u@ox.ac.uk,http://sfgate.com,+86 (114) 149-1971
Symantec Corporation,467 Eliot Place,Lago da Pedra,65715-000,+55 (742) 807-5464,jduddy3v@miitbeian.gov.cn,https://instagram.com,+46 (236) 370-6649
Macquarie/First Trust Global,9858 Havey Crossing,Salamnunggal,,+62 (355) 742-6514,abehning3w@gravatar.com,https://xinhuanet.com,+212 (254) 691-3800
OncoGenex Pharmaceuticals Inc.,9969 Manufacturers Circle,Mikhaylov,391710,+7 (215) 783-8971,awinscomb3x@amazon.de,https://hexun.com,+33 (665) 979-1297
"First Business Financial Services, Inc.",34325 Blackbird Trail,Gressier,,+509 (492) 116-1352,dlearoyde3y@bloomberg.com,http://statcounter.com,+351 (400) 409-0983
Westlake Chemical Corporation,1782 Fallview Parkway,Casal,3600-584,+351 (173) 967-4515,lmarzelle3z@netvibes.com,http://blogs.com,+420 (717) 394-5674
"Regeneron Pharmaceuticals, Inc.",91096 Badeau Crossing,Daru,,+232 (420) 995-7380,wlouw40@sphinn.com,http://aol.com,+94 (236) 506-8924
Sanmina Corporation,0052 Cordelia Pass,Esmeraldas,35740-000,+55 (766) 338-5988,amcgillreich41@devhub.com,https://google.fr,+33 (745) 356-1258
"Reliv' International, Inc.",369 Heffernan Terrace,Mahalapye,,+267 (467) 103-0454,sduffy42@fotki.com,http://google.nl,+86 (440) 434-8650
Autobytel Inc.,0 Merrick Circle,Minyat an Naşr,,+20 (952) 738-3701,dmcwhinney43@webmd.com,https://purevolume.com,+63 (697) 284-2910
Technical Communications Corporation,78 Derek Way,Rende,,+86 (622) 918-5677,jbrownlow44@vistaprint.com,https://google.co.uk,+31 (437) 178-1447
"Jaguar Animal Health, Inc.",949 Hanover Hill,Blachownia,42-293,+48 (377) 468-9147,sstanning45@t-online.de,https://spiegel.de,+54 (721) 118-3585
Xerox Corporation,24691 Dayton Center,Paamiut,3940,+299 (370) 619-1230,ckarpychev46@rakuten.co.jp,https://geocities.jp,+371 (209) 417-9590
"First Solar, Inc.",362 Dottie Point,Slobozia,MD-4233,+373 (422) 694-7647,epownall47@flavors.me,http://networkadvertising.org,+48 (833) 884-1622
"NextEra Energy, Inc.",36241 Division Lane,Duodaoshi,,+86 (899) 940-8054,acuckson48@xinhuanet.com,http://free.fr,+218 (683) 803-7560
Aehr Test Systems,377 Del Sol Park,Yangdi,,+86 (128) 523-5248,nwattisham49@twitpic.com,http://cocolog-nifty.com,+7 (135) 186-8908
Buenaventura Mining Company Inc.,19165 Annamark Court,Sharga,,+976 (103) 477-2190,pfarquarson4a@icq.com,https://huffingtonpost.com,+86 (127) 663-2343
Regency Centers Corporation,7 Fair Oaks Trail,Payabon,9209,+63 (639) 159-7301,ljacklin4b@yahoo.co.jp,http://behance.net,+7 (205) 719-8961
PennantPark Investment Corporation,849 Longview Crossing,Kolwezi,,+242 (927) 150-2311,nbogie4c@phoca.cz,http://businessinsider.com,+86 (814) 965-7136
Sanchez Energy Corporation,29062 Thierer Street,Pahing Pamulihan,,+62 (493) 475-8615,hsonley4d@amazon.com,http://geocities.jp,+62 (265) 665-5581
Ares Management L.P.,7441 Lighthouse Bay Street,Nadvoitsy,186430,+7 (391) 384-4138,adantuoni4e@nifty.com,http://samsung.com,+82 (788) 445-2868
"FRONTEO, Inc.",5312 North Terrace,Malicboy,5606,+63 (319) 396-9021,bsnadden4f@opensource.org,http://cdbaby.com,+86 (999) 172-8642
Immune Design Corp.,4573 Clove Pass,Sawahan,,+62 (614) 202-2878,mthursfield4g@bluehost.com,https://mit.edu,+86 (774) 364-1619
1st Constitution Bancorp (NJ),55 Novick Pass,Kolbudy,83-050,+48 (216) 223-6290,acaughte4h@tamu.edu,http://phoca.cz,+86 (284) 906-5335
"Peoples Bancorp of North Carolina, Inc.",6098 Dawn Road,Ondoy,5607,+63 (888) 497-9687,bbullin4i@ucoz.com,http://devhub.com,+255 (886) 793-8664
Zions Bancorporation,609 La Follette Lane,Miribanteng,,+62 (544) 167-5638,dcaseri4j@drupal.org,https://artisteer.com,+1 (295) 631-9578
PIMCO Income Strategy Fund II,86207 Commercial Drive,Glugur Tengah,,+62 (458) 849-4935,gangood4k@51.la,http://joomla.org,+91 (352) 915-7396
"Internationa Flavors & Fragrances, Inc.",8 Maple Plaza,Hepu,,+86 (637) 596-0651,vwarriner4l@seesaa.net,http://psu.edu,+62 (648) 474-2498
Huntington Bancshares Incorporated,7 Bonner Circle,Axioúpoli,,+30 (627) 979-8964,aaxford4m@list-manage.com,http://bing.com,+353 (558) 439-2252
"Owens & Minor, Inc.",7 Muir Court,Kagal’nitskaya,403538,+7 (758) 622-8645,lsheals4n@ning.com,https://yandex.ru,+62 (471) 133-6504
"Sandy Spring Bancorp, Inc.",14601 Lotheville Street,Shibata,530-0012,+81 (611) 734-4447,rszymoni4o@nytimes.com,https://goo.gl,+7 (530) 997-5535
"New America High Income Fund, Inc. (The)",9796 Heffernan Street,Laidian,,+86 (858) 369-2654,mpowland4p@shop-pro.jp,https://timesonline.co.uk,+351 (652) 787-6292
Target Corporation,3569 Londonderry Point,Río Ceballos,5113,+54 (208) 822-5266,bkemsley4q@nature.com,https://vk.com,+7 (251) 926-2956
"Monogram Residential Trust, Inc.",15255 Parkside Crossing,Alençon,61015 CEDEX,+33 (512) 330-9103,rconybear4r@aol.com,https://sciencedirect.com,+86 (917) 512-0763
Gafisa SA,455 Raven Pass,Dukhovnitskoye,413900,+7 (117) 770-8055,tmylechreest4s@jugem.jp,http://loc.gov,+7 (422) 330-9296
"American Airlines Group, Inc.",7093 Manitowish Plaza,Mojo,,+251 (895) 608-6927,niley4t@addtoany.com,http://nationalgeographic.com,+258 (342) 486-9874
Crown Castle International Corporation,66 Arkansas Hill,Rangxi,,+86 (354) 686-7042,gmillmore4u@blogspot.com,http://goo.gl,+7 (106) 235-9068
"Aquinox Pharmaceuticals, Inc.",9545 Summit Street,Shangdu,,+86 (264) 253-7994,dwolseley4v@census.gov,http://networksolutions.com,+387 (196) 562-7670
Citigroup Inc.,48681 Knutson Drive,Buerarema,45615-000,+55 (318) 523-5531,cgentle4w@php.net,https://cloudflare.com,+266 (805) 212-5733
The KEYW Holding Corporation,039 Karstens Avenue,Dedza,,+265 (435) 983-0414,nprimrose4x@e-recht24.de,https://loc.gov,+961 (661) 502-2567
NF Energy Saving Corporation,02 Westridge Lane,Slobodka,627251,+7 (266) 450-0771,mhiorn4y@angelfire.com,https://tiny.cc,+48 (759) 100-5232
"CryoLife, Inc.",1 Springs Court,Néa Pélla,,+30 (744) 919-3134,nhillum4z@canalblog.com,https://simplemachines.org,+351 (561) 259-1734
"LightInTheBox Holding Co., Ltd.",43 Florence Court,La Luz,,+58 (599) 882-2650,shannond50@newyorker.com,https://state.gov,+63 (361) 103-3774
"Craft Brew Alliance, Inc.",312 Barby Alley,Tangxing,,+86 (340) 190-4757,mkershaw51@ibm.com,http://amazon.de,+374 (454) 705-3467
Alamos Gold Inc.,5094 Straubel Crossing,Phuket,83120,+66 (839) 109-8307,ecubbon52@patch.com,http://php.net,+86 (403) 872-7473
ProShares UltraShort Nasdaq Biotechnology,44677 Luster Court,Visby,621 85,+46 (422) 529-6993,aortas53@angelfire.com,http://nih.gov,+1 (758) 666-2995
GGP Inc.,8 Bay Center,Czarna Dąbrówka,77-116,+48 (273) 567-8198,driepl54@sphinn.com,https://ocn.ne.jp,+63 (857) 377-1046
Triangle Capital Corporation,76033 Lakeland Court,Kuidou,,+86 (264) 545-1349,zmargrem55@hhs.gov,https://cloudflare.com,+353 (586) 820-3865
Central Federal Corporation,46358 East Junction,Bogi,,+62 (434) 920-9272,hpiggin56@ihg.com,https://weibo.com,+30 (587) 896-2615
Valvoline Inc.,4837 Hermina Alley,Palca,,+51 (509) 988-0520,ialldridge57@gizmodo.com,https://who.int,+86 (894) 663-1281
Trinity Biotech plc,061 Monterey Hill,Tikhoretsk,422120,+7 (697) 295-2238,fdabel58@hhs.gov,https://etsy.com,+86 (310) 425-3326
Noble Corporation,6472 Lerdahl Plaza,Jinhe,,+86 (141) 919-4254,ddoran59@guardian.co.uk,https://cbsnews.com,+1 (572) 423-2772
Blackrock MuniYield Investment Fund,67 West Pass,Hezuoqiao,,+86 (891) 287-1207,dplan5a@bluehost.com,https://ox.ac.uk,+963 (996) 105-3664
"Aquinox Pharmaceuticals, Inc.",536 Lakewood Court,Ganjiangtou,,+86 (812) 440-7259,fabdey5b@ovh.net,https://senate.gov,+33 (244) 340-8219
VictoryShares US EQ Income Enhanced Volatility Wtd ETF,48198 Reinke Road,Chrysó,,+30 (461) 477-2737,ltulley5c@ezinearticles.com,https://edublogs.org,+1 (704) 688-0747
Kimco Realty Corporation,68954 Pennsylvania Center,Chongjin,,+850 (959) 447-0469,rbenediktovich5d@unicef.org,https://instagram.com,+86 (537) 534-6690
"Apricus Biosciences, Inc.",3 Del Mar Park,Xilu,,+86 (445) 175-7701,calsina5e@webnode.com,http://about.com,+86 (416) 528-7807
"Edgewater Technology, Inc.",533 Ilene Point,Pelaya,204047,+57 (861) 745-3206,dhookes5f@reddit.com,http://behance.net,+62 (723) 617-3179
Gentherm Inc,06 Eastwood Trail,Bagumbayan,9810,+63 (999) 784-5039,ssleath5g@nature.com,https://illinois.edu,+387 (742) 256-8285
Bank of America Corporation,51736 Eastwood Point,Owczarnia,05-824,+48 (347) 605-0904,rselwyn5h@desdev.cn,http://smugmug.com,+46 (304) 474-8447
Eaton Vance Senior Floating-Rate Fund,79438 Waywood Park,Nizhniy Kurkuzhin,361515,+7 (240) 170-0611,tleyborne5i@salon.com,https://tuttocitta.it,+86 (262) 739-6223
"Northwest Bancshares, Inc.",635 Duke Court,Bang Pakong,24130,+66 (855) 711-0136,csibbons5j@loc.gov,https://mozilla.org,+62 (564) 437-1281
"TPI Composites, Inc.",8 Westend Terrace,Gaoqiaolou,,+86 (554) 916-5893,rismirnioglou5k@bigcartel.com,http://a8.net,+30 (579) 537-6869
Parker Drilling Company,23741 Calypso Point,Gunjur,,+220 (564) 180-5318,ujosland5l@pcworld.com,https://hud.gov,+86 (802) 514-7220
Puma Biotechnology Inc,22 Red Cloud Pass,Wanfang,,+86 (813) 445-2776,bbonick5m@europa.eu,https://newsvine.com,+86 (752) 428-2495
"Bridgeline Digital, Inc.",6117 Norway Maple Circle,Shahr-e Şafā,,+93 (979) 311-4751,wmallatratt5n@diigo.com,http://blogs.com,+62 (514) 887-7390
Osisko Gold Royalties Ltd,24783 Stuart Center,Bhiria,67321,+92 (838) 903-5990,svondrach5o@google.ca,http://addthis.com,+57 (280) 350-0434
"First Cash, Inc.",352 Cody Parkway,Pélla,,+30 (150) 548-4415,cboatright5p@mapquest.com,https://wunderground.com,+1 (251) 895-3014
"Aviragen Therapeutics, Inc.",604 Spaight Junction,Cibingbin,,+62 (573) 709-3924,ftwitchings5q@google.co.jp,https://abc.net.au,+81 (639) 340-7644
POSCO,724 Clyde Gallagher Avenue,Damatou,,+86 (685) 925-0182,lyannikov5r@house.gov,https://blogs.com,+55 (763) 892-1021
"Halozyme Therapeutics, Inc.",29145 Eliot Parkway,Imbang,6116,+63 (456) 321-0349,gdackombe5s@home.pl,http://ocn.ne.jp,+380 (141) 798-7458
ClearBridge Dividend Strategy ESG ETF,6 Rockefeller Parkway,Changshan,,+86 (628) 492-2142,sgolagley5t@phoca.cz,https://shareasale.com,+256 (691) 331-2288
"Manhattan Associates, Inc.",63120 Valley Edge Plaza,Tarvasjoki,21450,+358 (855) 794-7176,eedridge5u@taobao.com,http://pen.io,+66 (558) 724-5993
Pitney Bowes Inc.,14 La Follette Pass,Serrana,14150-000,+55 (484) 483-7406,eguillou5v@prweb.com,http://dell.com,+62 (897) 350-0313
Gulfport Energy Corporation,16 Heath Lane,Saint-Quentin,02104 CEDEX,+33 (642) 706-7011,wdeverose5w@webnode.com,http://webeden.co.uk,+62 (487) 345-0579
"Easterly Government Properties, Inc.",13373 Continental Terrace,Batas Barat,,+62 (949) 722-4249,ajustun5x@auda.org.au,http://twitter.com,+7 (102) 284-6027
The Medicines Company,19622 Veith Lane,Teberda,397608,+7 (280) 535-3268,wmckellar5y@yahoo.com,https://free.fr,+62 (889) 911-8207
Federal Agricultural Mortgage Corporation,0209 Elka Alley,Tanggulangin,,+62 (654) 903-3214,cboniface5z@google.com.au,https://miibeian.gov.cn,+359 (703) 453-5922
"Genocea Biosciences, Inc.",0543 Walton Way,Oeleon,,+62 (309) 112-0562,wbullivent60@nationalgeographic.com,http://house.gov,+86 (187) 489-7907
W.R. Grace & Co.,43023 Novick Point,Cayenne,97329 CEDEX,+594 (808) 463-7678,xsurgeoner61@nhs.uk,https://mac.com,+86 (148) 474-8287
"Xencor, Inc.",15410 Independence Point,Leeds,LS6,+44 (501) 506-0452,spostill62@plala.or.jp,https://ucsd.edu,+52 (348) 456-6969
NICE Ltd,54 Waxwing Crossing,Kulpin,,+381 (911) 924-9688,nzukierman63@bloglovin.com,http://nytimes.com,+51 (914) 379-5683
"Alder BioPharmaceuticals, Inc.",6412 3rd Circle,Uvarovo,393479,+7 (529) 112-8275,bbuncher64@desdev.cn,https://yellowbook.com,+62 (338) 963-8325
Medtronic plc,28848 Straubel Lane,Troyits’ke,,+380 (473) 646-1663,kcolt65@fema.gov,https://cocolog-nifty.com,+66 (240) 463-9899
"ImmunoGen, Inc.",62730 Killdeer Way,Tucdao,6547,+63 (592) 488-7562,shrinchishin66@instagram.com,http://google.ca,+86 (328) 555-5213
Colonial Intermediate High Income Fund,0683 8th Court,Guniushan,,+86 (189) 532-5750,agrimmert67@tamu.edu,https://ustream.tv,+7 (355) 203-6909
Actuant Corporation,39529 Coleman Way,Dzięgielów,43-445,+48 (982) 646-3315,wroxbrough68@cyberchimps.com,http://newyorker.com,+60 (121) 546-5598
PowerShares S&P SmallCap Consumer Staples Portfolio,67 Oxford Center,Nyeri,,+254 (658) 522-0755,abridewell69@archive.org,https://creativecommons.org,+86 (114) 473-2783
"CF Industries Holdings, Inc.",56 Park Meadow Street,Babushkin,671235,+7 (505) 712-2817,sbartul6a@usnews.com,https://wired.com,+86 (491) 606-6279
Perion Network Ltd,2 Towne Lane,Hampton,23663,+1 (804) 971-8324,taldington6b@fda.gov,http://ft.com,+381 (857) 518-1217
"Dicerna Pharmaceuticals, Inc.",772 Oak Pass,Samur,,+994 (797) 232-8155,panderer6c@jugem.jp,https://list-manage.com,+46 (470) 958-7964
"Cleveland BioLabs, Inc.",0 Acker Plaza,Datong,,+86 (285) 266-9283,dkeatch6d@livejournal.com,https://comcast.net,+48 (958) 392-2895
Costamare Inc.,33944 Bowman Park,Lubukalung,,+62 (148) 910-1647,sbraiden6e@amazon.de,https://slate.com,+47 (852) 289-6335
"Uranium Resources, Inc.",0 Brickson Park Court,Plesná,725 27,+420 (195) 971-3944,clinnell6f@mapquest.com,http://dropbox.com,+86 (184) 601-6475
"Hostess Brands, Inc.",014 Melody Street,Sincelejo,700017,+57 (463) 249-8650,ndufore6g@cisco.com,https://webnode.com,+54 (967) 924-6143
"AgroFresh Solutions, Inc.",8 Logan Crossing,Chittagong,4000,+880 (168) 510-3059,ofibbens6h@china.com.cn,http://ihg.com,+52 (404) 373-4046
"Onconova Therapeutics, Inc.",33 Summerview Hill,Baiqiao,,+86 (570) 602-9838,tparsons6i@nbcnews.com,http://pagesperso-orange.fr,+233 (946) 219-3179
Leading Brands Inc,29 Hoffman Center,Jianxin,,+86 (605) 384-6409,fmoncrieffe6j@forbes.com,https://google.co.jp,+86 (144) 409-2983
"Net Element, Inc.",9316 Mandrake Park,Szydłowo,64-930,+48 (984) 252-1960,alarner6k@drupal.org,https://squidoo.com,+234 (279) 755-4410
Celyad SA,09 Dakota Road,Denver,80241,+1 (720) 187-2750,kadvani6l@ucla.edu,http://ftc.gov,+81 (971) 444-2385
"Neos Therapeutics, Inc.",125 Armistice Center,Pyhäntä,92930,+358 (497) 339-6915,mjerman6m@sphinn.com,https://theglobeandmail.com,+86 (585) 951-5156
"Siliconware Precision Industries Company, Ltd.",25 Hagan Junction,Atlanta,30358,+1 (404) 362-5481,avandermerwe6n@live.com,http://furl.net,+51 (503) 346-8667
TFS Financial Corporation,513 Oak Street,Morcolla,,+51 (465) 657-6144,hpollicatt6o@howstuffworks.com,http://facebook.com,+53 (277) 815-6743
"Yatra Online, Inc.",1 Sunbrook Crossing,Saint Joseph,64504,+1 (816) 708-2929,jgerrelts6p@huffingtonpost.com,http://github.io,+46 (720) 797-0867
"Air Transport Services Group, Inc",602 Sherman Junction,Buenos Aires,93380,+52 (767) 741-1642,averralls6q@abc.net.au,https://nasa.gov,+255 (837) 605-6055
Eaton Vance Municipal Income Trust,0 Welch Hill,Andamui,,+62 (504) 353-7997,tbexley6r@jalbum.net,https://apache.org,+54 (747) 405-5139
Unilever NV,56718 Little Fleur Parkway,Stockholm,103 22,+46 (368) 512-9614,lhammonds6s@w3.org,http://ucoz.ru,+58 (502) 748-4581
"Martin Marietta Materials, Inc.",5 Banding Place,Timba Lauk,,+62 (385) 104-5391,bdurram6t@senate.gov,https://jimdo.com,+374 (198) 499-7907
Westinghouse Air Brake Technologies Corporation,5654 Ohio Court,Jaunpils,,+371 (644) 518-3095,ebaxstar6u@usa.gov,https://livejournal.com,+351 (824) 364-3422
Bioverativ Inc.,7 Badeau Junction,Osveya,,+375 (624) 197-7205,xcrump6v@google.it,https://macromedia.com,+86 (360) 391-0184
"Blackrock Enhanced Government Fund, Inc",33 Reindahl Terrace,Viškovci,34310,+385 (376) 757-0246,mworms6w@ocn.ne.jp,http://barnesandnoble.com,+62 (445) 312-5205
"HopFed Bancorp, Inc.",62272 Harper Circle,Koski Tl,31501,+358 (241) 502-6775,sgillam6x@skyrock.com,https://wsj.com,+381 (645) 242-4551
"Midland States Bancorp, Inc.",617 Comanche Alley,Sanguansi,,+86 (450) 714-7508,bpirozzi6y@cloudflare.com,http://indiatimes.com,+86 (506) 602-3827
"Provident Financial Services, Inc",0 Warbler Plaza,Port Washington,11054,+1 (516) 564-2733,jfahey6z@cyberchimps.com,https://creativecommons.org,+86 (365) 197-7449
Ark Restaurants Corp.,87636 Rutledge Avenue,Oum Hadjer,,+235 (489) 974-9132,bfarrant70@home.pl,http://tripadvisor.com,+48 (817) 966-9090
TCF Financial Corporation,9830 Armistice Park,Xianren,,+86 (819) 946-6315,omacaloren71@123-reg.co.uk,http://howstuffworks.com,+86 (198) 840-6794
"SCYNEXIS, Inc.",53139 Service Terrace,Paris 16,75778 CEDEX 16,+33 (615) 196-3239,wrawll72@amazon.de,http://jiathis.com,+7 (225) 158-7609
Eaton Vance High Income 2021 Target Term Trust,79268 Colorado Avenue,Tam Kỳ,,+84 (836) 732-4572,cfilinkov73@xing.com,http://cmu.edu,+967 (778) 208-9679
Gold Fields Limited,1498 Bartillon Trail,Pangu,,+86 (514) 661-5652,mbrewer74@blogtalkradio.com,https://census.gov,+63 (548) 963-4131
Forum Merger Corporation,51 Farwell Point,Tangalla,82200,+94 (598) 437-5086,fatling75@netvibes.com,https://theatlantic.com,+51 (897) 569-1460
Duke Realty Corporation,6407 Caliangt Trail,Gotemba,412-0048,+81 (216) 894-4283,ebehnke76@samsung.com,http://diigo.com,+86 (245) 741-0991
Welltower Inc.,11 Pearson Parkway,Jesús María,5223,+54 (964) 389-4293,awarricker77@nbcnews.com,https://chronoengine.com,+86 (554) 122-2712
MFS Government Markets Income Trust,1491 Troy Alley,Ush-Tyube,,+7 (197) 263-7614,sgentery78@springer.com,http://wix.com,+269 (479) 536-0391
FlexShares Real Assets Allocation Index Fund,720 Graedel Road,Comalapa,04004,+502 (857) 948-9782,copenshaw79@github.io,https://slate.com,+55 (573) 252-9576
BlueStar TA-BIGITech Israel Technology ETF,53 Nova Trail,Leuwihalang,,+62 (488) 804-4761,sfierro7a@psu.edu,http://ucoz.ru,+66 (601) 311-1598
FIRST REPUBLIC BANK,07 Fulton Drive,Khān Arnabah,,+963 (273) 466-4636,pgunby7b@google.co.jp,https://rambler.ru,+55 (527) 324-0223
"Banc of California, Inc.",453 Petterle Street,Goya,3450,+54 (944) 885-3331,kdelias7c@reddit.com,http://angelfire.com,+86 (721) 632-6009
Omega Protein Corporation,07 Northwestern Point,Ålesund,6015,+47 (538) 489-5832,ttineman7d@usgs.gov,https://de.vu,+98 (686) 871-9811
"Royce Global Value Trust, Inc.",079 Karstens Alley,Sloboda,397743,+7 (932) 485-1898,dstannislawski7e@meetup.com,https://about.me,+385 (131) 338-9565
CHS Inc,1879 Nelson Terrace,Sasykoli,416013,+7 (400) 471-7473,rgrimster7f@yandex.ru,https://dot.gov,+62 (965) 759-1362
PLx Pharma Inc.,48254 Miller Pass,Drybin,,+375 (270) 142-5674,fcubbit7g@dailymotion.com,https://admin.ch,+86 (970) 639-9849
"Grupo Aeroportuario Del Pacifico, S.A. de C.V.",24 Cottonwood Hill,Cane,,+504 (517) 257-7204,awollen7h@prnewswire.com,https://digg.com,+55 (621) 382-9900
"Equifax, Inc.",82 Stuart Way,La Caya,11503,+1 (970) 997-9252,cbogue7i@163.com,http://scribd.com,+358 (699) 377-2108
"Host Hotels & Resorts, Inc.",0 School Center,Sandyford,D04,+353 (377) 248-9152,swenzel7j@ucoz.ru,http://stanford.edu,+63 (952) 125-9929
"Kandi Technologies Group, Inc.",6869 Pond Point,Doro Oo,,+62 (566) 224-8480,fthurlbeck7k@japanpost.jp,http://spiegel.de,+86 (163) 130-9632
CytRx Corporation,5 Carioca Parkway,Rio Meão,4520-471,+351 (209) 363-4550,ldallin7l@blogs.com,https://unesco.org,+93 (242) 655-9932
Six Flags Entertainment Corporation New,760 Elmside Way,São Paio de Seide,4770-665,+351 (938) 125-5867,pcyson7m@ibm.com,https://independent.co.uk,+351 (521) 884-3012
"Intersect ENT, Inc.",32 Burning Wood Place,Asbestos,J1T,+1 (421) 527-9313,lgrievson7n@zdnet.com,https://altervista.org,+1 (646) 788-4236
"Social Reality, Inc.",864 Morning Drive,Saratak,,+374 (529) 235-5070,wmac7o@buzzfeed.com,http://mit.edu,+507 (744) 812-3908
NutriSystem Inc,4 Stoughton Center,Dhaka,1312,+880 (461) 498-1930,lstendall7p@samsung.com,http://merriam-webster.com,+92 (944) 789-4769
Orange,30 Towne Plaza,Runsonglaozhai,,+86 (534) 876-5111,rbaldin7q@vk.com,https://github.io,+504 (292) 907-2368
WD-40 Company,49253 4th Way,Babakanlapang,,+62 (654) 722-0871,gnarramor7r@businessweek.com,http://ning.com,+81 (194) 353-6936
"BCE, Inc.",2997 Heffernan Center,Pangantocan,4006,+63 (425) 855-9177,bsalway7s@topsy.com,https://issuu.com,+84 (719) 261-2705
3D Systems Corporation,80 Mayer Hill,Stalbe,,+371 (738) 534-7825,rheber7t@un.org,http://plala.or.jp,+55 (943) 839-1535
"Under Armour, Inc.",8595 4th Junction,Kyra,674250,+7 (934) 393-5554,tmushett7u@pen.io,http://goodreads.com,+55 (441) 404-9359
"Prudential Financial, Inc.",79 Clyde Gallagher Way,Hämeenkoski,16801,+358 (383) 962-6212,sbalsdone7v@instagram.com,https://plala.or.jp,+886 (328) 358-7187
Intuit Inc.,8953 Bashford Terrace,Kapinango,,+62 (251) 288-1268,aditty7w@answers.com,http://icq.com,+86 (116) 610-4993
McGrath RentCorp,3655 Village Green Park,Río de Jesús,,+507 (481) 240-7604,lwhitland7x@4shared.com,https://springer.com,+62 (972) 399-6039
GasLog LP.,349 Green Ridge Center,Brazzaville,,+242 (301) 155-1806,ljoscelyne7y@time.com,https://godaddy.com,+86 (686) 780-6773
IQ Chaikin U.S. Small Cap ETF,72 Forest Place,Emiliano Zapata,70805,+52 (975) 925-7502,emeric7z@home.pl,http://hhs.gov,+33 (392) 308-2745
FirstEnergy Corporation,8703 Vernon Circle,Sūq Sibāḩ,,+967 (554) 890-2096,ephilcox80@blogs.com,http://va.gov,+86 (970) 266-8470
"Gores Holdings II, Inc.",882 Morrow Drive,Mosquera,250047,+57 (504) 120-7605,amaclean81@umn.edu,https://cam.ac.uk,+7 (634) 545-4172
Eaton Vance Tax-Managed Global Diversified Equity Income Fund,2 3rd Terrace,Élancourt,78990,+33 (954) 729-4446,lstroobant82@mlb.com,https://wp.com,+58 (227) 408-2699
"Poage Bankshares, Inc.",497 Darwin Plaza,Tatarbunary,,+380 (425) 726-1786,tbroadhurst83@answers.com,https://blog.com,+86 (189) 915-3565
Lehman ABS Corporation,82 Center Circle,Mayma,659780,+7 (773) 443-3720,smeachem84@businesswire.com,http://domainmarket.com,+63 (785) 144-1145
Southwest Airlines Company,1482 Claremont Road,Baoli,,+86 (688) 930-8945,pdragonette85@engadget.com,http://google.co.uk,+7 (334) 556-9119
Kite Realty Group Trust,3 Drewry Trail,Itamaraju,45836-000,+55 (236) 120-9600,omccomish86@admin.ch,https://wisc.edu,+47 (503) 728-0306
Pan American Silver Corp.,68 Shoshone Hill,Bassa,,+234 (685) 885-2519,gmizzen87@gravatar.com,https://odnoklassniki.ru,+46 (287) 697-8580
General Electric Company,7702 Kingsford Avenue,Imaichi,999-1413,+81 (785) 551-0566,lsaltrese88@army.mil,http://amazon.com,+93 (744) 570-0901
"P & F Industries, Inc.",465 Carioca Alley,Besançon,25057 CEDEX,+33 (123) 662-9929,fwiddows89@fema.gov,https://hibu.com,+48 (317) 858-2566
K12 Inc,53 Barnett Plaza,Blon’,,+375 (658) 133-8459,jryrie8a@instagram.com,http://nasa.gov,+86 (310) 912-7644
North European Oil Royality Trust,60 Erie Lane,Przodkowo,83-304,+48 (102) 351-5770,eeblein8b@vinaora.com,https://sciencedirect.com,+967 (885) 472-4684
"Morgan Stanley Emerging Markets Fund, Inc.",3012 Pleasure Trail,Almaznyy,678181,+7 (129) 611-2976,rfortye8c@google.it,https://seesaa.net,+230 (631) 888-6597
"Gores Holdings II, Inc.",26592 Fulton Avenue,Pretoria,0204,+27 (866) 144-0430,ledwardes8d@goo.ne.jp,https://about.com,+86 (956) 324-7382
"Ritter Pharmaceuticals, Inc.",83 Cardinal Hill,Sanying,,+86 (570) 778-6268,kdecopeman8e@illinois.edu,http://jalbum.net,+63 (434) 476-7475
Diageo plc,1 Derek Road,Pelaya,204047,+57 (719) 965-8737,hmallord8f@github.com,https://toplist.cz,+86 (868) 762-7691
"VASCO Data Security International, Inc.",9426 Dakota Alley,Kanginan,,+62 (641) 805-8358,cthomassen8g@comcast.net,http://msn.com,+63 (967) 336-5166
"Financial Institutions, Inc.",21 Anniversary Park,Vesoul,70004 CEDEX,+33 (138) 912-2758,stooley8h@youku.com,https://businessweek.com,+63 (358) 279-9980
Duke Realty Corporation,86 Vera Trail,Colima,11305,+506 (796) 883-5554,lcossans8i@dmoz.org,http://accuweather.com,+374 (886) 857-5444
L.B. Foster Company,14096 Dakota Court,Granja do Tedo,5120-165,+351 (182) 891-5479,keagell8j@csmonitor.com,http://tumblr.com,+1 (515) 716-4869
Arch Capital Group Ltd.,66322 Glendale Avenue,Shangzhang,,+86 (477) 898-9961,mshrimplin8k@whitehouse.gov,http://infoseek.co.jp,+48 (234) 110-8294
W.R. Grace & Co.,4 Blue Bill Park Crossing,Orléans,45075 CEDEX 2,+33 (673) 384-7069,rpirozzi8l@alibaba.com,http://ning.com,+55 (923) 870-4747
Apple Inc.,4 Eagan Center,Kool Tengah,,+62 (736) 825-7980,csanchez8m@sina.com.cn,http://mediafire.com,+225 (397) 259-1840
"Aptose Biosciences, Inc.",57260 Summer Ridge Center,Liushutun,,+86 (514) 280-3299,emalicki8n@reference.com,http://buzzfeed.com,+591 (773) 710-5421
Pioneer Municipal High Income Advantage Trust,188 Arrowood Court,Färjestaden,386 35,+46 (315) 612-0298,jcapelen8o@statcounter.com,https://topsy.com,+62 (147) 510-5385
"CACI International, Inc.",9240 Starling Place,Eira da Pedra,2495-505,+351 (137) 238-5944,pmagog8p@pen.io,https://businesswire.com,+86 (612) 539-3423
Qwest Corporation,5847 Little Fleur Street,Malunda,,+62 (752) 624-0221,tcolbert8q@mapquest.com,https://weibo.com,+970 (919) 590-4477
Chemed Corp.,86 Pawling Street,Guzhuyingzi,,+86 (375) 828-2423,vocullen8r@lulu.com,http://shop-pro.jp,+63 (884) 902-7313
Wells Fargo & Company,663 Mifflin Hill,Shumerlya,429127,+7 (868) 416-8550,alemarchant8s@admin.ch,http://mediafire.com,+47 (174) 273-6341
"Dynex Capital, Inc.",148 Gateway Circle,Lantian,,+86 (863) 498-1529,fzealander8t@artisteer.com,https://telegraph.co.uk,+63 (171) 504-7481
Tech Data Corporation,4497 Kingsford Road,Qingshui,,+86 (804) 296-6221,iwhittock8u@amazonaws.com,http://is.gd,+84 (524) 506-3920
"Silver Spring Networks, Inc.",35979 Sommers Park,Jiangshi,,+86 (559) 623-7398,rhinkes8v@fc2.com,https://va.gov,+55 (939) 186-9687
"Civista Bancshares, Inc. ",16 Cottonwood Pass,Rio Grande da Serra,09450-000,+55 (260) 148-0098,sbalding8w@slashdot.org,https://cbc.ca,+351 (166) 243-2678
ITT Inc.,13689 Talmadge Pass,Arteche,6822,+63 (996) 860-7189,mmacenelly8x@sitemeter.com,http://e-recht24.de,+86 (417) 628-8854
"Image Sensing Systems, Inc.",8645 Jay Trail,Xuanhua,,+86 (425) 500-7028,aperdue8y@yahoo.co.jp,https://army.mil,+63 (697) 533-0203
"Cotiviti Holdings, Inc.",57082 Lunder Trail,Pisaras,,+691 (498) 428-9833,qcrevagh8z@bandcamp.com,https://java.com,+81 (830) 729-7855
BlackRock Credit Allocation Income Trust,88 Cambridge Pass,Sumberkrajan,,+62 (318) 547-5461,nfilipyev90@senate.gov,http://independent.co.uk,+86 (709) 534-6590
Liberty Global plc,47 Raven Terrace,Kengyuan,,+86 (789) 711-5351,xchippendale91@github.io,https://nasa.gov,+52 (958) 201-8710
Sempra Energy,7293 Swallow Avenue,Driefontein,4142,+27 (380) 936-6019,mshawdforth92@themeforest.net,http://i2i.jp,+1 (718) 487-5051
Daily Journal Corp. (S.C.),2769 Oak Avenue,København,1567,+45 (574) 714-7973,ecrann93@geocities.com,http://phpbb.com,+7 (228) 155-7815
KKR Financial Holdings LLC,636 Hagan Pass,Fengniancun,,+86 (218) 976-4101,lburman94@freewebs.com,http://ustream.tv,+226 (786) 561-6907
Dreyfus High Yield Strategies Fund,43338 Burrows Court,Mansa,,+260 (699) 461-5637,ecicci95@newsvine.com,http://lulu.com,+62 (364) 784-0109
"Arrow Electronics, Inc.",46 Loftsgordon Drive,Matanzas,,+53 (657) 368-1661,ethom96@so-net.ne.jp,http://hubpages.com,+380 (882) 436-1319
VictoryShares Developed Enhanced Volatility Wtd ETF,6 Little Fleur Park,Bonavista,E8M,+1 (453) 958-4172,rrutledge97@forbes.com,http://umich.edu,+86 (868) 268-1299
"Iteris, Inc.",41848 Hansons Way,Biritiba Mirim,08940-000,+55 (545) 866-4592,tdetheridge98@cnet.com,http://istockphoto.com,+33 (702) 316-8601
Apache Corporation,1004 Monterey Park,Pinggang,,+86 (934) 889-4088,hsagrott99@independent.co.uk,http://imgur.com,+593 (139) 147-4528
"Cal-Maine Foods, Inc.",40 Coleman Hill,Pando,2826,+63 (634) 504-6736,setches9a@printfriendly.com,http://who.int,+86 (977) 583-5006
Parker-Hannifin Corporation,16 Schlimgen Trail,Elvas,7350-005,+351 (141) 209-7209,ggooch9b@goodreads.com,http://simplemachines.org,+55 (723) 172-1200
Stone Harbor Emerging Markets Income Fund,6346 Lakewood Alley,Föglö,22710,+358 (374) 852-6130,babrahams9c@parallels.com,https://privacy.gov.au,+86 (149) 636-8202
"American Public Education, Inc.",0 Bunting Alley,Valeirinha,3070-435,+351 (244) 857-4598,kduester9d@spotify.com,http://miibeian.gov.cn,+81 (688) 310-4067
"Nexstar Media Group, Inc.",61 Kinsman Pass,Daojiang,,+86 (602) 763-0815,gduck9e@about.com,https://chron.com,+86 (825) 734-0606
"Intevac, Inc.",5 Anhalt Circle,Los Angeles,90040,+1 (213) 629-3291,cfrancescotti9f@privacy.gov.au,https://so-net.ne.jp,+7 (867) 215-3624
New Age Beverages Corporation,40 Bellgrove Junction,Casal Novo,2440-024,+351 (213) 305-9584,njandel9g@google.cn,https://nifty.com,+86 (932) 164-9222
BullMark LatAm Select Leaders ETF,2 Stephen Hill,Xambabazar,,+86 (866) 282-2084,taspall9h@aboutads.info,http://instagram.com,+63 (948) 132-2276
"Inspired Entertainment, Inc.",24 Graceland Court,Bordeaux,33026 CEDEX,+33 (552) 938-0574,ajiras9i@un.org,http://liveinternet.ru,+86 (633) 802-7124
Petroleo Brasileiro S.A.- Petrobras,350 Algoma Park,Maimará,4624,+54 (377) 104-8886,cmoncreif9j@cyberchimps.com,https://edublogs.org,+57 (849) 126-4427
"Equity Bancshares, Inc.",99854 Hovde Terrace,Pinamalayan,5208,+63 (483) 349-5871,acaseri9k@eventbrite.com,https://freewebs.com,+93 (826) 314-4945
"Natural Grocers by Vitamin Cottage, Inc.",844 Forest Run Park,Postoloprty,439 42,+420 (317) 226-4146,kchecketts9l@miitbeian.gov.cn,https://surveymonkey.com,+55 (666) 821-8987
"Limelight Networks, Inc.",172 Fair Oaks Park,Teknāf,4762,+880 (577) 250-6921,cabrey9m@miibeian.gov.cn,http://amazon.com,+63 (612) 874-1284
Weibo Corporation,27770 Kipling Street,Onitsha,,+234 (483) 105-3254,mivashechkin9n@last.fm,https://spotify.com,+58 (770) 610-7747
PTC Inc.,1051 Green Ridge Crossing,Roma,26834,+52 (530) 591-9983,glundon9o@sfgate.com,http://purevolume.com,+359 (524) 493-5570
"American National Bankshares, Inc.",3767 Fisk Park,Jiazhuang,,+86 (294) 716-5157,mmariot9p@amazonaws.com,http://shop-pro.jp,+81 (415) 249-9726
"PROS Holdings, Inc.",05086 Roth Way,Kudamatsu,745-0654,+81 (539) 719-5936,mchooter9q@webeden.co.uk,https://sakura.ne.jp,+86 (641) 728-0865
"ChinaNet Online Holdings, Inc.",28 Rutledge Avenue,Bailieborough,C15,+353 (921) 608-8058,dblaxall9r@yelp.com,http://google.co.uk,+7 (154) 793-3866
Ashford Hospitality Trust Inc,956 Village Park,Kassiri,,+232 (499) 219-0398,crizon9s@tripod.com,https://jugem.jp,+66 (145) 445-6176
Annaly Capital Management Inc,735 Dorton Circle,Cikondang,,+62 (774) 747-7209,aguitte9t@woothemes.com,https://soundcloud.com,+54 (645) 155-1964
First Trust Mid Cap Value AlphaDEX Fund,532 Jana Lane,Vani,,+995 (971) 706-1542,dbattisson9u@wsj.com,https://diigo.com,+267 (598) 732-6189
Eaton Vance Municipal Income 2028 Term Trust,8140 Ronald Regan Pass,Ankazoabo,,+261 (923) 805-1548,jwixey9v@over-blog.com,https://earthlink.net,+62 (360) 714-7305
Ita? CorpBanca,4375 Portage Way,Metsovo,,+30 (241) 130-0413,uolochan9w@shop-pro.jp,http://ucoz.ru,+86 (145) 719-3819
InterXion Holding N.V.,59426 Elgar Hill,Boucinhas,4650-805,+351 (879) 232-2485,kandrivel9x@list-manage.com,http://mtv.com,+994 (609) 997-9536
"Aethlon Medical, Inc.",47767 Dorton Alley,Birobidzhan,152430,+7 (660) 293-9451,tedens9y@bbc.co.uk,http://google.es,+63 (127) 316-0596
"BioScrip, Inc.",09059 Prairie Rose Way,Örebro,700 15,+46 (505) 346-7395,nthomsen9z@admin.ch,http://multiply.com,+55 (955) 425-7558
"Aquinox Pharmaceuticals, Inc.",157 Kinsman Road,Jindui,,+86 (167) 896-1884,adeavillea0@mashable.com,https://jiathis.com,+7 (538) 514-2696
TE Connectivity Ltd.,2176 Troy Street,Banyo,,+237 (720) 325-3318,abartsa1@netvibes.com,https://soundcloud.com,+228 (926) 584-1923
DDR Corp.,6273 Emmet Crossing,Tungipāra,8121,+880 (199) 938-1028,ifolinia2@purevolume.com,https://arizona.edu,+255 (870) 775-0887
"Republic Services, Inc.",516 Banding Center,Sidonganti,,+62 (987) 849-0217,sbooga3@cbsnews.com,http://cargocollective.com,+63 (279) 842-0186
The GDL Fund,4 Logan Park,Dadong,,+86 (581) 459-5978,achastainga4@mozilla.com,https://flavors.me,+1 (801) 891-6746
"Telephone and Data Systems, Inc.",230 Londonderry Park,Anjozorobe,,+261 (534) 763-6680,mmccallama5@fastcompany.com,https://noaa.gov,+976 (120) 283-6202
"Prudential Bancorp, Inc.",49242 Talmadge Hill,Luojiang,,+86 (901) 762-9023,elombardoa6@pbs.org,http://ucoz.ru,+33 (716) 170-2063
"Natural Gas Services Group, Inc.",07472 Sutherland Point,Ambovombe,,+261 (756) 382-9209,kpurcera7@amazon.com,http://narod.ru,+63 (118) 347-2384
Pure Cycle Corporation,688 Grover Road,Altkirch,68134 CEDEX,+33 (717) 842-3142,ffinka8@tamu.edu,https://seesaa.net,+46 (629) 149-4489
Natural Resource Partners LP,8347 Westridge Lane,Prosperidad,4107,+63 (265) 427-4829,sdartnalla9@acquirethisname.com,http://zimbio.com,+86 (725) 586-6247
"Global Net Lease, Inc.",8711 Village Green Center,Dubno,,+380 (878) 402-7448,cdyshartaa@angelfire.com,http://diigo.com,+86 (887) 731-7084
"WhiteHorse Finance, Inc.",30 Ridge Oak Plaza,Mobile,36689,+1 (251) 406-9955,eradborneab@qq.com,https://biglobe.ne.jp,+62 (451) 341-0326
Intercontinental Exchange Inc.,92932 Hanover Place,Babakandesa,,+62 (226) 730-2774,kzaniniac@amazon.co.uk,https://oakley.com,+55 (222) 750-2062
"Watsco, Inc.",58171 Center Place,Častolovice,517 50,+420 (110) 119-1451,sclabburnad@acquirethisname.com,https://surveymonkey.com,+86 (952) 373-4584
Nuveen Floating Rate Income Fund,309 Village Green Terrace,Wujiao,,+86 (844) 196-2497,gmchughae@hugedomains.com,https://hhs.gov,+57 (242) 528-6095
"A-Mark Precious Metals, Inc.",00 Comanche Court,Skelleftehamn,932 33,+46 (760) 650-3025,rmapstonaf@blinklist.com,https://forbes.com,+86 (930) 240-5162
Trans World Entertainment Corp.,63 Anhalt Terrace,Haputale,90160,+94 (240) 424-8472,ainsollag@t-online.de,http://tinypic.com,+86 (997) 704-0851
Verona Pharma plc,2272 David Drive,São Roque,9500-701,+351 (847) 825-9593,hosanneah@freewebs.com,https://parallels.com,+46 (323) 753-7851
"Information Services Group, Inc.",7486 Banding Plaza,Khanu Woralaksaburi,62130,+66 (450) 424-6109,nspinoai@scientificamerican.com,https://hostgator.com,+30 (800) 666-4592
"Boston Private Financial Holdings, Inc.",5 Redwing Hill,Castelnaudary,11493 CEDEX,+33 (923) 992-6342,fsimlaaj@spiegel.de,http://unicef.org,+886 (194) 558-4836
L.B. Foster Company,92961 Anzinger Trail,Tomobe,319-1304,+81 (958) 683-7443,hnuzztiak@webnode.com,https://about.me,+66 (355) 756-9407
Semgroup Corporation,387 Oriole Alley,Kaset Sombun,36120,+66 (823) 342-1476,jthoringtonal@parallels.com,http://ted.com,+234 (505) 857-9156
"United Continental Holdings, Inc.",0145 Hooker Way,Gatak,,+62 (652) 131-0301,cothamam@ihg.com,https://list-manage.com,+1 (366) 494-1939
Tenaris S.A.,381 Sunfield Crossing,Lincuo,,+86 (127) 899-3149,wpaulian@51.la,http://godaddy.com,+86 (828) 317-2212
Southern Company (The),21 Corry Point,München,81373,+49 (421) 477-4578,smincherao@ning.com,https://miitbeian.gov.cn,+54 (220) 530-3515
"New York Community Bancorp, Inc.",48908 Bowman Hill,Starobachaty,652685,+7 (445) 175-3348,sruiltonap@irs.gov,https://phpbb.com,+380 (887) 600-7440
First Trust NASDAQ-100 Equal Weighted Index Fund,968 Troy Parkway,Mabalacat,2010,+63 (461) 927-1888,bgibardaq@berkeley.edu,https://ifeng.com,+51 (570) 605-0477
Hyatt Hotels Corporation,91 Doe Crossing Point,Bukowina Tatrzańska,34-530,+48 (556) 111-9240,wshuardar@youku.com,https://lycos.com,+62 (384) 831-6735
Consolidated Edison Inc,04402 Elgar Circle,Novosel’ye,,+375 (292) 560-6692,agammillas@liveinternet.ru,https://nhs.uk,+86 (948) 812-9741
Nordic American Offshore Ltd,7172 Arapahoe Court,Kibiya,,+234 (556) 227-2101,fescaleat@reference.com,http://nymag.com,+86 (756) 796-2979
"Novus Therapeutics, Inc.",746 Cordelia Center,Alicante/Alacant,03005,+34 (750) 156-8999,mchristophersenau@gizmodo.com,http://webmd.com,+420 (103) 529-9331
Progress Software Corporation,92452 Lotheville Court,Bandar-e Lengeh,,+98 (784) 214-1340,kcubbonav@a8.net,http://wsj.com,+7 (282) 780-3305
"Era Group, Inc.",70348 High Crossing Plaza,Yahotyn,,+380 (421) 990-1583,rdorantaw@netscape.com,https://ask.com,+63 (658) 167-2515
Atomera Incorporated,1266 Del Sol Place,Huayana,,+51 (616) 152-8942,kfillisax@pbs.org,http://businessweek.com,+420 (161) 592-5918
YY Inc.,8738 Dunning Plaza,Herzliya Pituah,,+972 (257) 606-6205,sokeenanay@ovh.net,http://vistaprint.com,+46 (747) 560-4322
"TerraVia Holdings, Inc.",3 Clove Terrace,Sanban,,+86 (821) 425-6250,yconstantinouaz@networkadvertising.org,https://upenn.edu,+7 (844) 914-4180
"Host Hotels & Resorts, Inc.",1 Pleasure Alley,Brest,29609 CEDEX 2,+33 (858) 157-0178,rrawoodb0@flickr.com,http://elegantthemes.com,+81 (785) 135-2175
"Cellcom Israel, Ltd.",2783 Pearson Parkway,Dolany,783 16,+420 (803) 434-8371,lbauerb1@joomla.org,http://huffingtonpost.com,+30 (212) 944-9941
Mesa Royalty Trust,206 Packers Park,"Laikit, Laikit II (Dimembe)",,+62 (373) 339-2819,mdeveraleb2@facebook.com,http://discovery.com,+86 (415) 483-9602
"Electro-Sensors, Inc.",5843 5th Court,Zielonki,32-087,+48 (374) 493-1324,csodenb3@cargocollective.com,http://yahoo.co.jp,+86 (945) 633-6159
Grupo Financiero Santander Mexico S.A. B. de C.V.,855 Stuart Pass,Florianópolis,88000-000,+55 (640) 136-2358,cbealesb4@canalblog.com,http://google.de,+355 (905) 238-2322
Celgene Corporation,0522 Dahle Circle,Tantou,,+86 (667) 811-9162,vlustedb5@amazonaws.com,http://foxnews.com,+46 (220) 198-6014
"Merrimack Pharmaceuticals, Inc.",3927 Lotheville Street,Wutumeiren,,+86 (507) 803-6888,mtrusdaleb6@shinystat.com,http://goo.gl,+55 (765) 433-0825
"Laureate Education, Inc.",4 Gerald Center,Lagawe,3600,+63 (908) 447-3718,lsemeniukb7@npr.org,http://about.me,+86 (128) 635-2415
VivoPower International PLC,31695 Stuart Pass,Qinghua,,+86 (992) 918-4580,hnelthropb8@taobao.com,http://cnet.com,+420 (994) 904-6110
"I.D. Systems, Inc.",796 Charing Cross Terrace,Hobonio,,+62 (498) 707-9138,dsleafordb9@stumbleupon.com,http://theguardian.com,+380 (677) 322-1680
L.S. Starrett Company (The),24255 New Castle Hill,Calle Blancos,10803,+506 (436) 382-5592,palmeidaba@skype.com,https://unesco.org,+86 (699) 849-7119
Pershing Gold Corporation,6326 Lakewood Pass,San Pedro,4500,+54 (981) 438-6177,edaykinbb@yahoo.com,https://gnu.org,+27 (742) 967-3920
Kemet Corporation,3 West Court,El Mirador,29140,+52 (546) 306-0789,bladdsbc@parallels.com,https://discuz.net,+260 (987) 829-5560
Kornit Digital Ltd.,4 Armistice Park,Iwo,,+234 (854) 912-8953,cleggingbd@com.com,http://godaddy.com,+351 (336) 188-8031
"Eco-Stim Energy Solutions, Inc.",67 Little Fleur Place,Ressano Garcia,,+258 (341) 511-2140,rroebuckbe@goodreads.com,http://unblog.fr,+7 (698) 834-0690
Macquarie/First Trust Global,74732 Cottonwood Place,Patabog,2200,+63 (893) 610-9672,twilkowskibf@nbcnews.com,http://livejournal.com,+1 (203) 667-8021
"Adams Natural Resources Fund, Inc.",511 Muir Hill,Mabyan,,+967 (822) 323-0811,dspacybg@unblog.fr,http://spiegel.de,+380 (669) 222-4520
"Parkway, Inc.",10 Caliangt Junction,Zonghan,,+86 (465) 248-5523,aroscoebh@boston.com,https://webmd.com,+7 (281) 589-3476
"CorEnergy Infrastructure Trust, Inc.",16456 Declaration Street,Laventille,,+1 (110) 529-4037,dnicklinbi@cnbc.com,http://ask.com,+86 (402) 568-6757
Cabot Microelectronics Corporation,5 Clyde Gallagher Crossing,Salor,,+998 (780) 485-2375,jmussolinibj@wired.com,http://github.io,+7 (608) 891-7011
Sotheby's,4619 Bluestem Pass,Tatsuno,979-1501,+81 (107) 183-9657,bbrokerbk@cornell.edu,http://craigslist.org,+86 (873) 434-7439
Endeavour Silver Corporation,816 Spenser Trail,Ceres,6840,+27 (678) 524-0869,mtiesmanbl@jalbum.net,https://weebly.com,+33 (368) 996-8880
Nutraceutical International Corporation,40148 Upham Court,Jintian,,+86 (439) 675-8436,psaxtonbm@google.com.br,https://yolasite.com,+46 (822) 487-8548
Assured Guaranty Ltd.,507 South Terrace,Kotido,,+256 (670) 205-4564,gstoilebn@nymag.com,http://ifeng.com,+46 (734) 242-3386
Crawford & Company,19186 Spohn Road,Billdal,427 35,+46 (436) 236-6359,dcongrevebo@issuu.com,http://washingtonpost.com,+56 (150) 899-1721
First Trust Emerging Markets Small Cap AlphaDEX Fund,271 Fairfield Junction,Ijuw,,+674 (902) 495-5975,smcgaughiebp@wufoo.com,https://goo.ne.jp,+30 (646) 161-1207
Centrais Electricas Brasileiras S.A.- Eletrobras,3350 Northview Plaza,Boxholm,590 14,+46 (446) 746-4968,aposnettebq@admin.ch,http://ifeng.com,+54 (401) 100-0653
Ultra Petroleum Corp.,57 Welch Lane,Ježdovec,10250,+385 (173) 292-1274,acamilleribr@paginegialle.it,http://yahoo.com,+86 (798) 724-1161
"Coeur Mining, Inc.",9075 Larry Hill,Duas Igrejas,4580-373,+351 (349) 228-8560,kgoodbarnebs@soundcloud.com,https://house.gov,+86 (577) 534-1778
Tronox Limited,704 Michigan Trail,Marigot,,+509 (104) 154-4972,akleinhandlerbt@eventbrite.com,http://bloglines.com,+420 (273) 581-9212
Flushing Financial Corporation,9157 Spaight Avenue,Atabayan,5021,+63 (176) 574-9641,bbrodeaubu@umich.edu,https://mozilla.org,+86 (177) 443-0556
"Computer Task Group, Incorporated",3 Red Cloud Crossing,Monastir,,+216 (637) 146-9314,ahanshawbv@slideshare.net,https://furl.net,+62 (358) 335-7576
Harvest Capital Credit Corporation,52 Cottonwood Circle,Sancha,,+86 (861) 548-8580,wgoacherbw@youku.com,https://i2i.jp,+33 (788) 771-1089
"KemPharm, Inc.",3737 Dorton Court,Moscavide,1885-029,+351 (640) 813-5816,salgybx@mashable.com,http://walmart.com,+7 (621) 957-8739
Sonic Corp.,3195 Gulseth Road,Šenkovec,40000,+385 (784) 162-4189,drishmanby@skyrock.com,http://infoseek.co.jp,+998 (448) 707-0736
Navios Maritime Holdings Inc.,43 Arkansas Point,Nueva Imperial,,+56 (288) 813-7651,rcitrinebz@google.co.uk,https://nba.com,+62 (866) 367-5231
Deltic Timber Corporation,4 Shoshone Avenue,Johor Bahru,80668,+60 (165) 223-1902,ldionsettoc0@storify.com,http://paypal.com,+420 (596) 106-5246
"Summit Hotel Properties, Inc.",965 Vermont Trail,Dengjiang,,+86 (497) 937-9714,maiskriggc1@washingtonpost.com,http://furl.net,+86 (844) 497-0203
First Trust Multi Cap Growth AlphaDEX Fund,9 Blaine Park,Marsaxlokk,MXK,+356 (947) 234-7736,gburnsc2@list-manage.com,http://amazonaws.com,+7 (652) 900-5697
Sears Canada Inc. ,88283 Warrior Place,Gouménissa,,+30 (374) 354-9987,rmationc3@businessinsider.com,http://vistaprint.com,+93 (170) 895-1788
"Sorrento Therapeutics, Inc.",3137 Butterfield Place,Pontarlier,25304 CEDEX,+33 (308) 750-4594,abeedomc4@pagesperso-orange.fr,https://com.com,+86 (411) 522-2910
Origin Agritech Limited,3222 6th Terrace,Chang’an,,+86 (259) 718-9740,kkunatc5@mayoclinic.com,https://webnode.com,+46 (278) 907-9185
"PIMCO Strategic Income Fund, Inc.",17745 Melvin Hill,Guacarí,763508,+57 (180) 227-2418,rgasonc6@de.vu,http://google.cn,+52 (540) 146-3056
Lianluo Smart Limited,640 Algoma Hill,Tulu Bolo,,+251 (998) 438-2363,egarwellc7@cnbc.com,http://tinypic.com,+66 (115) 330-7310
Marin Software Incorporated,9616 Summer Ridge Parkway,Staraya Derevnya,422367,+7 (938) 700-1904,soakwellc8@bandcamp.com,http://blogspot.com,+51 (617) 547-2607
Assured Guaranty Ltd.,2 Coleman Terrace,Salekhard,629008,+7 (242) 203-6412,rclinesc9@youtu.be,http://gnu.org,+63 (725) 729-1202
Guggenheim Taxable Municipal Managed Duration Trst,24414 Sycamore Circle,Kemiri Daya,,+62 (729) 404-6940,mstukeca@google.com,http://ebay.co.uk,+54 (538) 913-2484
"Facebook, Inc.",62408 Charing Cross Crossing,Quankou,,+86 (444) 155-0814,ljachtymcb@phpbb.com,http://zdnet.com,+7 (340) 412-4950
Centene Corporation,83541 Birchwood Park,Bamusso,,+237 (353) 737-6659,bgeytoncc@nih.gov,https://craigslist.org,+90 (848) 921-9605
Resource Capital Corp.,7 Northport Pass,Kamenjane,1221,+389 (298) 576-3631,nplatfootcd@people.com.cn,https://yandex.ru,+353 (824) 334-0483
"CytomX Therapeutics, Inc.",49 Mandrake Crossing,Narutō,289-1343,+81 (433) 989-0969,maspince@dyndns.org,http://cbslocal.com,+503 (406) 661-5679
"Douglas Dynamics, Inc.",306 Continental Avenue,Daojiang,,+86 (956) 183-6021,rbradwellcf@indiatimes.com,http://trellian.com,+86 (803) 230-2178
KKR Financial Holdings LLC,33 Rieder Trail,Karantaba,,+220 (822) 833-0793,jlongworthycg@bbc.co.uk,http://youtube.com,+46 (636) 230-9434
"CenturyLink, Inc.",13 Red Cloud Street,Boka,,+381 (900) 577-2691,ediplockch@census.gov,http://usatoday.com,+62 (778) 256-8186
Actuant Corporation,324 Forest Dale Parkway,Huamali,,+51 (691) 394-0437,jkiehneci@forbes.com,https://yale.edu,+351 (846) 945-8092
Farmland Partners Inc.,344 Montana Crossing,Cikou,,+86 (208) 518-6769,cikincj@yale.edu,https://cornell.edu,+63 (360) 726-1189
LCNB Corporation,8 Quincy Alley,Watuagung,,+62 (167) 918-3703,erowesbyck@berkeley.edu,http://usgs.gov,+86 (817) 344-0450
"StarTek, Inc.",0516 Mcbride Plaza,Kaavi,73601,+358 (732) 593-1722,acudihycl@usatoday.com,http://hp.com,+7 (852) 987-1991
Nuveen Diversified Dividend and Income Fund,70414 Declaration Drive,Alkmaar,1814,+31 (159) 137-0807,divanichevcm@vk.com,http://naver.com,+62 (805) 365-5321
Summit State Bank,724 Kensington Junction,Ngamba,,+62 (395) 279-7911,ggalletycn@zdnet.com,http://com.com,+20 (833) 268-1043
B.O.S. Better Online Solutions,91091 Elka Hill,Parral,,+56 (187) 196-6565,wlinnyco@bloglines.com,http://weather.com,+86 (786) 519-5045
"NextEra Energy, Inc.",1059 Weeping Birch Way,Châteaurenard,13834 CEDEX,+33 (425) 748-7070,tjanescp@icio.us,https://geocities.com,+47 (296) 347-4856
ChannelAdvisor Corporation,8891 Mayfield Way,João Pinheiro,38770-000,+55 (530) 415-7581,ylownescq@quantcast.com,http://flickr.com,+7 (594) 315-5381
"New Oriental Education & Technology Group, Inc.",479 Duke Plaza,Sobinka,601240,+7 (302) 775-2632,eogradycr@baidu.com,http://cam.ac.uk,+1 (418) 443-4599
PIMCO New York Municipal Income Fund,569 Kings Drive,Nová Cerekev,394 15,+420 (606) 555-6265,htomacs@networkadvertising.org,https://boston.com,+55 (430) 694-9693
Global Medical REIT Inc.,37398 Park Meadow Avenue,La Sarre,J9Z,+1 (522) 317-1736,hpomphreyct@tiny.cc,http://ezinearticles.com,+30 (375) 541-1337
Global Medical REIT Inc.,765 Shoshone Avenue,Mārupe,,+371 (710) 434-9808,abarckecu@narod.ru,http://discovery.com,+380 (961) 409-1056
Bank of America Corporation,35538 Troy Center,Beizi,,+86 (874) 401-1891,pcrockcv@wunderground.com,http://wisc.edu,+351 (893) 924-1991
"Spark Therapeutics, Inc.",57983 Golf View Road,Oak Bay,V8S,+1 (469) 423-8455,kgrigollicw@state.tx.us,https://mail.ru,+86 (610) 879-1203
Endurance Specialty Holdings Ltd,4005 Evergreen Crossing,Rokiciny,97-221,+48 (969) 817-7155,lpiecx@nsw.gov.au,https://privacy.gov.au,+62 (873) 906-9180
"First Mid-Illinois Bancshares, Inc.",0104 Dixon Hill,Paccha,,+51 (500) 159-3230,tteenancy@soundcloud.com,https://fema.gov,+7 (743) 276-3025
Entertainment Gaming Asia Incorporated,86046 Springs Place,Colima,11305,+506 (307) 473-3663,wrazzellcz@ask.com,https://dedecms.com,+53 (789) 341-7812
"Neothetics, Inc.",2792 7th Plaza,Poá,08550-000,+55 (519) 114-9584,ftuked0@github.com,https://state.tx.us,+7 (955) 972-2352
KNOT Offshore Partners LP,29127 Bay Road,Zabaykal’sk,665259,+7 (571) 480-8780,maltamiranod1@usda.gov,https://yellowpages.com,+86 (290) 429-2914
Asure Software Inc,691 Logan Park,Jiangyan,,+86 (138) 448-3049,mboickd2@vk.com,https://chronoengine.com,+48 (258) 588-5651
"Paycom Software, Inc.",792 Holy Cross Point,Lameira,4610-572,+351 (213) 682-7194,fbealingd3@flavors.me,https://51.la,+86 (893) 859-6548
LMP Capital and Income Fund Inc.,09 Mendota Drive,General Elizardo Aquino,,+595 (794) 614-6589,adavydochd4@yale.edu,https://shareasale.com,+237 (279) 218-5967
Barington/Hilco Acquisition Corp.,5954 Spohn Avenue,Camperdown,7646,+27 (340) 753-3590,lickovicd5@cpanel.net,https://prweb.com,+62 (462) 244-4374
Pacific Premier Bancorp Inc,375 School Center,Darvi,,+976 (814) 611-6978,ksultand6@i2i.jp,http://furl.net,+230 (659) 844-6100
"Sequential Brands Group, Inc.",8 Gale Terrace,Manacapuru,69400-000,+55 (148) 513-8101,iredingd7@tinypic.com,http://paginegialle.it,+1 (336) 313-5937
Cencosud S.A.,00305 Ridgeview Hill,Izlake,1411,+386 (330) 649-9755,lboddingtond8@msu.edu,https://printfriendly.com,+351 (795) 770-4571
Principal Financial Group Inc,60481 Hauk Hill,Chishmy,431674,+7 (922) 473-8941,kgallandd9@naver.com,http://bloomberg.com,+86 (791) 319-1862
Atlantic Power Corporation,5860 Forest Run Trail,Partizan,301635,+7 (660) 276-8923,rfurlowda@webeden.co.uk,https://google.co.jp,+52 (338) 235-9643
eGain Corporation,70027 8th Circle,Swan Hills,L2T,+1 (683) 966-7292,fkervindb@statcounter.com,http://wikipedia.org,+62 (962) 471-0316
Federal Signal Corporation,81 Dexter Hill,Jiulong,,+86 (157) 700-5739,geamdc@pinterest.com,https://parallels.com,+93 (236) 694-0596
Medtronic plc,98434 Katie Drive,Cibangun Tengah,,+62 (894) 291-5738,mswalteridgedd@oakley.com,http://miitbeian.gov.cn,+48 (181) 910-5331
"Tandem Diabetes Care, Inc.",5648 Moland Terrace,Teeli,668010,+7 (247) 108-1432,lcrockattde@jalbum.net,https://ameblo.jp,+255 (695) 230-9372
"Golub Capital BDC, Inc.",1299 Eastlawn Park,Messina,98124,+39 (292) 743-0171,tdalglieshdf@about.com,https://newyorker.com,+36 (921) 614-9508
Belden Inc,29965 Sauthoff Circle,Kuala Lumpur,50943,+60 (924) 651-0065,cslarkedg@bbc.co.uk,http://sfgate.com,+33 (145) 785-6665
Eaton Vance Risk-Managed Diversified Equity Income Fund,16084 Bartelt Drive,Patimuan,,+62 (640) 576-6676,srolesdh@baidu.com,http://wufoo.com,+1 (972) 990-2193
"American Renal Associates Holdings, Inc",32064 Russell Junction,Thành Phố Lạng Sơn,,+84 (421) 881-8307,gsoutherandi@reuters.com,https://cloudflare.com,+86 (316) 808-6526
"Full House Resorts, Inc.",41486 Mendota Street,T’aebaek,,+82 (318) 920-4868,njacklingdj@pagesperso-orange.fr,https://dot.gov,+62 (498) 940-8881
"Surgery Partners, Inc.",5 Dixon Alley,Illushi,,+234 (679) 401-7229,tjennerydk@comcast.net,https://weebly.com,+420 (976) 601-2572
Farmer Brothers Company,20696 Lighthouse Bay Way,Mateus Leme,35670-000,+55 (599) 779-7529,bwychdl@ocn.ne.jp,http://walmart.com,+86 (626) 972-0318
"Essex Property Trust, Inc.",9 Amoth Way,Komsomolsk-on-Amur,681008,+7 (140) 574-1968,tworttdm@pcworld.com,http://gizmodo.com,+62 (932) 928-6960
"Revolution Lighting Technologies, Inc.",178 Algoma Hill,Tacoma,98447,+1 (253) 319-3495,rcrathornedn@cdbaby.com,http://wikimedia.org,+55 (745) 993-8360
"Ferrellgas Partners, L.P.",82 Melrose Parkway,Sezimovo Ústí,391 02,+420 (197) 973-2738,cdellcasado@squarespace.com,http://sciencedaily.com,+63 (829) 264-0980
Anavex Life Sciences Corp.,25 Dawn Lane,Bobo-Dioulasso,,+226 (591) 632-3971,dpounderdp@pinterest.com,http://gnu.org,+1 (239) 948-2177
"Compass Minerals International, Inc.",881 Prairieview Parkway,Emiliano Zapata,71836,+52 (480) 412-7692,adunderdaledq@digg.com,https://parallels.com,+55 (264) 980-2394
New York Times Company (The),9936 Declaration Pass,Daming,,+86 (654) 213-3563,mnilgesdr@fema.gov,https://amazon.de,+86 (442) 396-7491
China Petroleum & Chemical Corporation,6 Nelson Road,San Luis del Palmar,3403,+54 (504) 489-7217,isweetmoreds@angelfire.com,http://studiopress.com,+81 (338) 678-1411
"Installed Building Products, Inc.",0589 Eastwood Way,Javhlant,,+976 (982) 809-0508,ilampbrechtdt@hud.gov,https://dailymail.co.uk,+385 (109) 359-4522
Eagle Growth and Income Opportunities Fund,6074 Pine View Crossing,Pingdingshan,,+86 (750) 667-3912,adeverelldu@xing.com,https://over-blog.com,+66 (386) 499-9232
Harmonic Inc.,68143 Dovetail Parkway,Shijie,,+86 (231) 567-7672,kcarwithendv@tamu.edu,https://paginegialle.it,+676 (559) 585-0409
PIMCO Municipal Income Fund,71 High Crossing Avenue,Alto do Estanqueiro,2870-610,+351 (592) 508-3110,nboulderdw@marketwatch.com,https://xrea.com,+93 (944) 895-1196
Liberty Media Corporation,42 Texas Lane,Shizi,,+86 (486) 375-3900,hmagoverndx@abc.net.au,http://earthlink.net,+86 (999) 278-7068
Glaukos Corporation,532 Hallows Way,Mhlambanyatsi,,+268 (212) 464-7560,kdaddowdy@techcrunch.com,https://accuweather.com,+351 (909) 448-4228
Blackrock New York Municipal 2018 Term Trust,2158 Kennedy Way,Mariestad,542 95,+46 (219) 509-6986,zgoodeedz@senate.gov,http://senate.gov,+964 (637) 395-5446
Fly Leasing Limited,66 Clove Park,Obrenovac,,+381 (464) 248-7646,aclethroe0@epa.gov,https://statcounter.com,+86 (580) 134-1882
"Post Holdings, Inc.",72266 Mcbride Street,Cimanggu,,+62 (731) 527-0736,glegricee1@bbc.co.uk,http://blogger.com,+51 (835) 342-5456
"The ONE Group Hospitality, Inc.",7797 Veith Parkway,Nangan,,+886 (277) 677-8198,aburtonshawe2@ovh.net,https://ameblo.jp,+381 (978) 838-0332
"Echo Global Logistics, Inc.",3 Spohn Plaza,Troitskiy,623641,+7 (739) 428-2203,tlandree3@indiatimes.com,http://tiny.cc,+84 (834) 520-9430
"Customers Bancorp, Inc",68 Manufacturers Road,Bocana de Paiwas,,+505 (801) 928-3768,ppaoluccie4@seattletimes.com,http://nature.com,+60 (528) 615-2459
"China Jo-Jo Drugstores, Inc.",918 Sachtjen Trail,Ivry-sur-Seine,94857 CEDEX,+33 (720) 906-1578,sbernarde5@cargocollective.com,https://sourceforge.net,+51 (673) 519-0549
Public Storage,165 Annamark Pass,Batang,,+62 (869) 428-1880,sdallae6@topsy.com,https://rakuten.co.jp,+93 (500) 212-0499
"Taubman Centers, Inc.",9 Cottonwood Terrace,Lingmen,,+86 (975) 286-0918,lgallafante7@washington.edu,https://vistaprint.com,+86 (370) 325-7893
United States Cellular Corporation,770 Truax Point,Helsingborg,253 00,+46 (831) 144-5562,fenriquese8@nationalgeographic.com,http://t.co,+62 (897) 731-0028
"Intersections, Inc.",7 Mallard Drive,Rzeszów,35-959,+48 (161) 635-2723,gdavidovitche9@issuu.com,http://reference.com,+86 (156) 656-3666
First Trust Japan AlphaDEX Fund,12 Dwight Road,James Craik,5984,+54 (830) 768-5329,tlocarnoea@ocn.ne.jp,https://ucoz.com,+86 (545) 274-8106
Hancock Holding Company,746 Dawn Road,Charlestown,,+1 (713) 927-3262,llangmuireb@google.co.jp,https://hibu.com,+1 (714) 855-7171
"GTY Technology Holdings, Inc.",9708 Pleasure Plaza,Tlogotunggal,,+62 (331) 543-3240,jhawneyec@tamu.edu,https://businessweek.com,+57 (338) 590-9938
First Trust Large Cap Value AlphaDEX Fund,098 Brickson Park Court,Widuchowa,74-120,+48 (533) 854-2593,speplawed@unicef.org,http://google.co.uk,+48 (673) 261-9156
iPath US Treasury 10-year Bear ETN,72594 Chive Lane,Liujia,,+86 (439) 346-9858,elatesee@fda.gov,http://icq.com,+86 (981) 757-3002
Cinedigm Corp,4 American Pass,Oltinko’l,,+998 (308) 297-5688,msendsef@va.gov,http://github.com,+86 (531) 465-6080
"WPX Energy, Inc.",83 Stephen Center,Khlevnoye,399260,+7 (756) 750-0576,hpottseg@people.com.cn,https://fema.gov,+371 (341) 722-5095
"Gibraltar Industries, Inc.",48267 Eagan Street,Wiwilí,,+505 (694) 688-3512,ebattanyeh@netscape.com,http://unblog.fr,+375 (220) 461-6051
"First Savings Financial Group, Inc.",56468 Kenwood Point,Rasūlnagar,52081,+92 (194) 734-4632,fgolbornei@uiuc.edu,https://cdbaby.com,+46 (688) 421-0398
"Oclaro, Inc.",70578 Pepper Wood Junction,Freixo de Numão,5155-205,+351 (676) 640-7223,pcopnerej@comcast.net,https://mayoclinic.com,+255 (383) 275-0303
Landec Corporation,9 Forest Run Road,Mata Grande,57540-000,+55 (447) 494-3160,bmcilwraithek@purevolume.com,http://blinklist.com,+353 (235) 470-6645
SMTC Corporation,75493 Bartelt Circle,Cawayan,5409,+63 (960) 323-5291,hcausbeyel@weebly.com,https://livejournal.com,+7 (961) 125-3289
Blackstone GSO Long Short Credit Income Fund,8012 Ramsey Plaza,Yugang,,+86 (698) 553-9056,xkeepinem@dailymotion.com,https://microsoft.com,+60 (900) 997-8528
"Controladora Vuela Compania de Aviacion, S.A.B. de C.V.",947 Kenwood Drive,Kahama,,+255 (514) 274-6755,ahamsleyen@hatena.ne.jp,http://meetup.com,+967 (273) 581-6236
"Lawson Products, Inc.",26443 Blaine Avenue,Cheban,,+86 (370) 841-0771,cmacadameo@surveymonkey.com,http://artisteer.com,+7 (442) 600-2504
"Landstar System, Inc.",335 Sunfield Junction,Chasŏng,,+850 (105) 760-3450,isouthwayep@godaddy.com,http://mayoclinic.com,+62 (567) 223-1132
First Trust,3 Eastwood Hill,Volochys’k,,+380 (976) 870-5789,bpendleberryeq@furl.net,https://bravesites.com,+380 (757) 921-0364
Envision Healthcare Corporation,43558 Almo Court,Sangali,1154,+63 (447) 402-2676,bcreboer@google.es,https://eepurl.com,+81 (773) 309-9224
"CBOE Holdings, Inc.",6 Becker Drive,Cuauhtemoc,40068,+52 (675) 237-9935,kknappes@fc2.com,http://engadget.com,+33 (104) 930-2396
Sibanye Gold Limited,19 Marcy Parkway,Diveyevo,607320,+7 (751) 859-7806,ilittlechildet@canalblog.com,https://soup.io,+55 (262) 272-2397
Seaspan Corporation,6 5th Parkway,Aravissós,,+30 (885) 304-2561,cpopplewelleu@artisteer.com,http://vimeo.com,+81 (404) 976-2548
"Hurco Companies, Inc.",092 Troy Street,Miliangju,,+86 (145) 850-4998,galstonev@redcross.org,https://archive.org,+86 (950) 784-5802
"Lantheus Holdings, Inc.",69192 Lukken Alley,Helmsange,L-7270,+352 (359) 959-2107,tashnessew@answers.com,http://hhs.gov,+46 (914) 560-3710
Natural Health Trends Corp.,3461 Marquette Trail,Allealle,,+62 (126) 543-1871,tgerholdex@bravesites.com,https://altervista.org,+81 (760) 537-9327
First Trust Emerging Markets Small Cap AlphaDEX Fund,53499 Spaight Center,Shuanghe,,+86 (980) 463-2575,cschlagmaney@symantec.com,http://photobucket.com,+62 (296) 532-2860
PowerShares Dividend Achievers Portfolio,5 Grasskamp Crossing,Detusoko,,+62 (651) 280-9973,anormanellez@marriott.com,https://redcross.org,+7 (222) 639-5613
CyberOptics Corporation,27 Golf Course Pass,Honjō,369-1201,+81 (939) 569-5566,lbentjef0@sbwire.com,http://ca.gov,+1 (755) 134-5199
Aluminum Corporation of China Limited,76028 Blaine Hill,Deqing,,+86 (762) 879-2723,wgoodboddyf1@xinhuanet.com,https://globo.com,+63 (343) 292-5806
ENDRA Life Sciences Inc.,162 Menomonie Way,Alice,5708,+27 (115) 809-0173,wkennedyf2@prlog.org,https://wikia.com,+590 (453) 938-3026
"NextEra Energy, Inc.",62 Milwaukee Terrace,Motema,,+232 (929) 407-9552,ahalburtonf3@amazonaws.com,http://homestead.com,+62 (943) 331-0390
Covisint Corporation,7451 John Wall Trail,Melres,4515-465,+351 (640) 495-3293,vdunleavyf4@cnbc.com,http://mysql.com,+86 (825) 503-8584
Select Income REIT,80 Veith Crossing,Lidečko,756 12,+420 (426) 927-7122,rjekelf5@skype.com,http://bravesites.com,+62 (818) 354-3601
First Trust NASDAQ ABA Community Bank Index Fund,764 Northridge Place,Nîmes,30034 CEDEX 1,+33 (496) 337-7427,lhowoodf6@cyberchimps.com,http://hubpages.com,+351 (144) 228-5414
WebMD Health Corp,2 Stang Court,Casa Nova,2655-425,+351 (542) 253-6993,mfullomf7@ft.com,https://amazon.co.jp,+86 (253) 111-7113
Evercore Partners Inc,137 Reindahl Parkway,Pisaras,,+691 (232) 684-0033,swackleyf8@redcross.org,https://networkadvertising.org,+351 (194) 424-9539
"FS Bancorp, Inc.",622 Vermont Junction,Tumba,147 23,+46 (189) 711-2029,tclaussenf9@hubpages.com,http://google.nl,+7 (594) 624-0172
"American Electric Power Company, Inc.",24 Towne Junction,Dongshan,,+86 (839) 321-5805,kwiltshawfa@npr.org,https://blogtalkradio.com,+370 (102) 209-6305
"Barnes & Noble, Inc.",553 Namekagon Crossing,Freire,,+56 (593) 577-5711,hpanichellifb@deviantart.com,https://hao123.com,+63 (171) 650-8745
"Qualys, Inc.",32802 Kennedy Lane,Wetzlar,35581,+49 (968) 899-4153,sbythwayfc@timesonline.co.uk,http://yandex.ru,+850 (745) 330-0290
"Morgan Stanley Emerging Markets Domestic Debt Fund, Inc.",483 American Ash Lane,Mintian,,+86 (469) 671-3793,ayouseffd@geocities.jp,http://netlog.com,+1 (813) 229-1846
"MMA Capital Management, LLC",7 Kropf Plaza,Plan de Ayala,29601,+52 (109) 762-0072,adoerrfe@exblog.jp,https://flavors.me,+62 (218) 597-0831
Neptune Technologies & Bioresources Inc,3208 Shasta Crossing,Decatur,30089,+1 (229) 329-4972,kelsdonff@typepad.com,https://fastcompany.com,+62 (666) 250-0545
"DST Systems, Inc.",8629 Marquette Circle,Rizhao,,+86 (898) 529-5828,fhardsfg@cam.ac.uk,http://naver.com,+1 (606) 731-0385
"Staffing 360 Solutions, Inc.",90 Union Point,Xiaozhen,,+86 (706) 595-1754,epaolottofh@bravesites.com,https://slideshare.net,+56 (829) 426-3207
"Sajan, Inc.",72604 South Lane,Caluire-et-Cuire,69644 CEDEX,+33 (762) 475-8672,aisakovicfi@wiley.com,https://vk.com,+86 (218) 204-3581
"Westmoreland Resource Partners, LP",754 Farwell Hill,Chornorudka,,+380 (486) 574-3395,hmynottfj@archive.org,http://addtoany.com,+386 (743) 708-5965
First Trust Senior Floating Rate Income Fund II,48 Scott Lane,Xiaping,,+86 (764) 209-6665,mgetshamfk@biglobe.ne.jp,http://ustream.tv,+27 (703) 524-4715
Taiwan Semiconductor Manufacturing Company Ltd.,969 Forest Run Place,Catalão,75700-000,+55 (576) 723-4821,emorofl@springer.com,https://zimbio.com,+963 (858) 659-9440
Companhia Paranaense de Energia (COPEL),573 Warner Park,Beo,,+62 (334) 698-6638,mthoriusfm@prweb.com,https://altervista.org,+850 (897) 385-2818
Farmers Capital Bank Corporation,670 Graedel Lane,San Antonio,6407,+63 (619) 176-3492,gmcfadefn@nifty.com,http://howstuffworks.com,+48 (917) 195-2971
Newtek Business Services Corp.,2384 Bultman Plaza,Bystrytsya,,+380 (231) 475-5477,emcmennumfo@blogspot.com,http://istockphoto.com,+62 (356) 520-0909
"HCI Group, Inc.",423 Express Plaza,El Tabo,,+56 (925) 305-8970,nbernardonfp@weibo.com,https://icq.com,+48 (211) 856-9916
"Blackrock Corporate High Yield Fund, Inc.",63 Farragut Court,Tawangsari,,+62 (933) 531-9551,kissacsonfq@acquirethisname.com,http://gnu.org,+1 (893) 512-1809
"Korea Fund, Inc. (The)",51 Waxwing Alley,Dhanot,42001,+92 (229) 398-3574,ujentgensfr@twitpic.com,https://phoca.cz,+234 (610) 111-0143
"West Marine, Inc.",8058 Declaration Terrace,Alaminos,4001,+63 (840) 568-6983,cciccottinifs@people.com.cn,https://cbslocal.com,+62 (473) 833-9492
"Miragen Therapeutics, Inc.",90 Holmberg Plaza,Albert Town,,+1 (635) 860-3831,tswalesft@wired.com,https://who.int,+63 (120) 570-1823
"Alliance MMA, Inc.",74 Old Shore Plaza,Ōno-hara,739-0559,+81 (915) 890-6226,mblaguefu@t-online.de,http://angelfire.com,+62 (903) 677-4486
Kellogg Company,6531 Carpenter Trail,Fershampenuaz,457650,+7 (985) 891-7095,hdrynanfv@google.com.hk,https://fastcompany.com,+380 (697) 613-7265
"New York & Company, Inc.",8 Burning Wood Alley,Benger,,+62 (416) 443-5723,srenfieldfw@yolasite.com,http://simplemachines.org,+351 (601) 350-1644
Graham Corporation,607 Straubel Park,Luodian,,+86 (886) 642-3613,gwelbournfx@wikipedia.org,https://lycos.com,+54 (477) 753-8287
Global Sources Ltd.,00 Glendale Plaza,Tongyu,,+86 (160) 175-3403,dpuckrinfy@dailymotion.com,https://t.co,+7 (639) 855-3527
"American Financial Group, Inc.",75 Dorton Lane,Badajoz,06005,+34 (937) 142-4270,kkisbeyfz@noaa.gov,https://archive.org,+55 (337) 270-2528
Equity Commonwealth,0754 Dovetail Parkway,At-Bashi,,+996 (900) 646-5999,lmacguffogg0@xinhuanet.com,http://flavors.me,+33 (720) 584-1832
Arlington Asset Investment Corp,38128 Golden Leaf Way,Dipayal,,+977 (662) 925-6406,egilfillang1@cloudflare.com,http://miitbeian.gov.cn,+86 (957) 713-1079
Osisko Gold Royalties Ltd,45 Stang Avenue,El Progreso,68451,+52 (423) 653-3041,esalleg2@prlog.org,http://nyu.edu,+31 (767) 729-2429
Nova Measuring Instruments Ltd.,2 Tennyson Lane,Jūrīsh,,+970 (774) 405-0218,mcoadg3@japanpost.jp,https://yahoo.co.jp,+81 (709) 506-8477
"PNC Financial Services Group, Inc. (The)",05877 Coleman Place,Karangkedawung,,+62 (746) 687-2101,jbasellig4@businesswire.com,https://lycos.com,+86 (996) 595-7232
Enbridge Inc,39566 Goodland Lane,Putrajaya,62606,+60 (287) 321-8152,mdeniscog5@tripadvisor.com,http://webeden.co.uk,+86 (794) 700-3390
"Summit Materials, Inc.",3 Myrtle Avenue,Forestville,G2B,+1 (513) 549-3933,mfarrg6@scientificamerican.com,http://usda.gov,+63 (852) 883-1837
"Diamondback Energy, Inc.",797 Rigney Avenue,Pushkino,142139,+7 (134) 910-5918,ahalledeg7@lulu.com,https://a8.net,+62 (285) 307-7606
"Ormat Technologies, Inc.",1 Blackbird Point,Puqian,,+86 (606) 797-6644,jalphegeg8@npr.org,https://prlog.org,+62 (360) 780-2172
Biohaven Pharmaceutical Holding Company Ltd.,34759 Spohn Point,Krylovskaya,353769,+7 (421) 723-1516,rcobleighg9@oracle.com,https://csmonitor.com,+380 (311) 145-1574
"Ross Stores, Inc.",6025 Packers Lane,Orekhovo-Borisovo,142717,+7 (134) 850-2668,nbrockwayga@tinyurl.com,http://sciencedirect.com,+86 (257) 431-7906
Sohu.com Inc.,98 Dixon Point,Qiongshan,,+86 (287) 471-0997,cpashbygb@narod.ru,https://msu.edu,+62 (530) 197-8939
Geo Group Inc (The),2266 Fairfield Park,Paris La Défense,92077 CEDEX,+33 (719) 461-2046,locurrigangc@ftc.gov,http://photobucket.com,+976 (928) 465-9726
"DigitalGlobe, Inc",04 Starling Point,Petite Rivière de Nippes,,+509 (317) 996-1920,msambellsgd@google.co.uk,https://skyrock.com,+86 (791) 736-0237
Blackrock New York Municipal Income Quality Trust,0 Cascade Circle,Sandefjord,3225,+47 (177) 777-4074,gburbagege@usnews.com,https://hhs.gov,+93 (226) 111-4448
"ImmunoGen, Inc.",4 Dennis Trail,Chortkiv,,+380 (632) 770-1491,jortlergf@studiopress.com,https://taobao.com,+62 (607) 127-3518
Amira Nature Foods Ltd,2530 Carey Road,Zábřeh,789 01,+420 (115) 918-9544,gcadlegg@booking.com,http://phoca.cz,+48 (851) 559-2365
"Apricus Biosciences, Inc.",2972 Paget Pass,Jinchang,,+86 (680) 911-7300,avestgh@pcworld.com,https://geocities.com,+48 (592) 315-7800
"Cohu, Inc.",1057 Village Green Lane,Barajalan,,+62 (392) 484-4861,sswanborrowgi@who.int,https://noaa.gov,+62 (318) 479-5894
"Prologis, Inc.",342 Anhalt Point,Morales,18004,+502 (121) 545-6624,apetitgj@geocities.jp,https://devhub.com,+62 (572) 727-0708
Origo Acquisition Corporation,6 Toban Road,Foros de Salvaterra,2120-185,+351 (852) 100-0372,bchessmangk@usgs.gov,https://vk.com,+81 (982) 109-8587
CSI Compressco LP,81 Debs Park,Valbo,818 92,+46 (889) 390-1833,vcawthrygl@reddit.com,https://skype.com,+57 (113) 875-6206
"USA Truck, Inc.",83465 Little Fleur Point,Vityazevo,353421,+7 (562) 810-2153,mmcleishgm@businessweek.com,http://etsy.com,+92 (611) 868-6677
CymaBay Therapeutics Inc.,9805 Springs Way,Davao,8000,+63 (852) 381-8700,oeadesgn@dell.com,https://cbsnews.com,+46 (596) 601-4386
McEwen Mining Inc.,1905 Southridge Place,Fier,,+355 (346) 267-9258,mnoligo@home.pl,http://biblegateway.com,+86 (448) 827-2506
"Estee Lauder Companies, Inc. (The)",061 Arrowood Crossing,Tangkeng,,+86 (931) 945-9601,efriargp@unicef.org,http://php.net,+62 (704) 591-1211
"Sky Solar Holdings, Ltd.",4680 Pine View Road,Cibatuireng,,+62 (206) 221-0278,krussogq@bbc.co.uk,http://youtube.com,+86 (599) 313-3623
Sabre Corporation,3499 Roxbury Center,Krajan Karangsari,,+62 (147) 355-1069,bolivettagr@msu.edu,http://weebly.com,+1 (951) 148-8732
"Chiasma, Inc.",086 Arkansas Crossing,Fraile Pintado,4506,+54 (868) 509-3117,jmatuszykgs@wikispaces.com,http://themeforest.net,+234 (880) 733-6580
"Martin Marietta Materials, Inc.",32975 Pierstorff Alley,Jing’an,,+86 (884) 549-1960,bivanikhingt@guardian.co.uk,https://prnewswire.com,+81 (765) 784-3509
Coca-Cola Company (The),84 Kings Avenue,Sasykoli,416013,+7 (976) 443-4113,eforstergu@blogs.com,https://desdev.cn,+86 (364) 222-0768
"Wheeler Real Estate Investment Trust, Inc.",647 Mallard Lane,Dinahican,0850,+63 (495) 779-4385,ssprigggv@boston.com,https://usnews.com,+44 (112) 975-2387
"American Financial Group, Inc.",46610 Ryan Parkway,Catriel,8307,+54 (561) 410-7022,ztrevorgw@dailymotion.com,https://discuz.net,+93 (137) 875-9038
LaSalle Hotel Properties,1 Spaight Point,Raduzhnyy,601380,+7 (696) 867-8174,ctraicegx@gov.uk,http://time.com,+62 (637) 839-4060
Goldman Sachs MLP Energy Renaissance Fund,12 Tennessee Crossing,Yiánnouli,,+30 (961) 286-7156,dnardrupgy@sfgate.com,https://addtoany.com,+55 (143) 187-5363
"Argo Group International Holdings, Ltd.",08868 Schlimgen Place,Jastrebarsko,10450,+385 (774) 263-0640,fbarochegz@archive.org,https://springer.com,+504 (409) 223-4525
Pebblebrook Hotel Trust,28210 Talisman Trail,Huaquirca,,+51 (764) 100-9242,rbattillh0@google.es,https://woothemes.com,+86 (876) 457-3891
Acuity Brands Inc,58 Michigan Court,Andkhōy,,+93 (197) 717-0967,ahallexh1@state.gov,http://nih.gov,+234 (550) 742-5398
"Acorn International, Inc.",110 Manufacturers Trail,Sudoměřice,696 66,+420 (344) 979-6174,rrigardeauh2@miitbeian.gov.cn,https://pen.io,+31 (576) 127-1531
"Allison Transmission Holdings, Inc.",938 Forest Avenue,Quintinha,2970-303,+351 (653) 201-0840,mtranfieldh3@sohu.com,http://liveinternet.ru,+86 (529) 570-7145
"Protagonist Therapeutics, Inc.",373 Sunfield Circle,Puerto Colombia,941047,+57 (130) 324-6938,iraltonh4@army.mil,https://squarespace.com,+55 (546) 397-1830
"Key Energy Services, Inc.",3 Graedel Terrace,San Juan,6227,+63 (368) 877-6972,avestyh5@com.com,https://infoseek.co.jp,+62 (943) 198-6680
"Lifeway Foods, Inc.",38526 Menomonie Point,Loma Bonita,47450,+52 (531) 459-9295,jmargerisonh6@statcounter.com,https://google.nl,+62 (620) 872-3883
"Mexico Fund, Inc. (The)",32 Dwight Junction,Thorpe,BD23,+44 (306) 335-6652,bbanfillh7@dmoz.org,http://sakura.ne.jp,+63 (356) 753-8557
Union Bankshares Corporation,002 Elka Park,Darkūsh,,+963 (431) 511-0182,lpeizerh8@a8.net,http://amazon.com,+64 (215) 225-5226
"StealthGas, Inc.",90 Sommers Way,Meixi,,+86 (351) 182-1890,rkehrih9@gizmodo.com,http://quantcast.com,+48 (434) 408-0975
EXFO Inc,571 Mallory Way,Pakisrejo,,+62 (508) 518-0472,usancraftha@artisteer.com,http://noaa.gov,+55 (495) 539-1342
Agree Realty Corporation,5 Harbort Plaza,Saky,,+380 (161) 951-6848,egordongileshb@aboutads.info,http://uol.com.br,+49 (748) 784-9032
"Ossen Innovation Co., Ltd.",96 School Crossing,Tando Muhammad Khān,70220,+92 (239) 807-4071,fduttonhc@marketwatch.com,https://eepurl.com,+86 (455) 510-8192
"PS Business Parks, Inc.",36712 Eggendart Plaza,Bull Savanna,,+1 (526) 518-1607,dkenfordhd@cisco.com,http://cisco.com,+1 (625) 191-7554
Government Properties Income Trust,74605 Shoshone Lane,Yangjinzhuang,,+86 (442) 575-3971,jnisehe@sfgate.com,http://bigcartel.com,+48 (630) 553-5716
"Weyco Group, Inc.",746 Waxwing Alley,Chagang,,+86 (870) 392-0194,trudeforthhf@google.ca,http://sun.com,+86 (697) 539-3152
"Dorchester Minerals, L.P.",04 Fieldstone Park,Bayt Ūlā,,+970 (365) 433-7729,sdunhillhg@about.com,http://symantec.com,+82 (259) 172-1839
"HopFed Bancorp, Inc.",23775 Rockefeller Pass,Queluz,2745-005,+351 (726) 621-2024,mcampanellihh@barnesandnoble.com,https://chronoengine.com,+46 (213) 114-4379
"Lakeland Industries, Inc.",9496 Transport Place,Krajan,,+62 (212) 584-3427,alittledykehi@tmall.com,https://walmart.com,+62 (442) 782-5299
United Microelectronics Corporation,1 Parkside Parkway,Mangga Dua,,+62 (285) 917-7739,kopperyhj@sphinn.com,https://hao123.com,+46 (280) 487-0367
Nuveen Maryland Quality Municipal Income Fund,953 Barnett Pass,Jenggawah,,+62 (754) 428-2375,recclesharehk@goo.ne.jp,http://ifeng.com,+48 (840) 933-9069
"AzurRx BioPharma, Inc.",34462 Moland Drive,Pensacola,32505,+1 (850) 795-6001,rmonthl@yolasite.com,https://hao123.com,+86 (660) 182-9544
Travelport Worldwide Limited,18749 Quincy Alley,Huayuan,,+86 (461) 106-2271,fbignalhm@census.gov,http://ezinearticles.com,+63 (742) 603-6068
PennyMac Mortgage Investment Trust,06 Green Ridge Lane,Zalţan,,+218 (487) 866-1780,nworledgehn@kickstarter.com,https://japanpost.jp,+234 (773) 173-2115
Luminex Corporation,9947 Sugar Crossing,Lai Lai Bisi Kopan,,+62 (815) 889-3383,mpfeffelho@dailymotion.com,http://sfgate.com,+48 (683) 647-8637
Piper Jaffray Companies,65353 Rusk Crossing,Moroni,,+269 (197) 255-0714,apantonehp@msu.edu,http://123-reg.co.uk,+30 (840) 108-0036
Northern Trust Corporation,197 Green Center,Baima,,+86 (585) 237-1827,ecrebotthq@com.com,https://irs.gov,+676 (141) 424-7226
"Plains All American Pipeline, L.P.",140 Hanover Lane,Pindushi,186323,+7 (664) 285-1475,cbattmanhr@epa.gov,https://jigsy.com,+33 (430) 760-2168
LPL Financial Holdings Inc.,6 Kenwood Road,Pilang,,+62 (304) 884-9742,cgauchierhs@phpbb.com,https://shutterfly.com,+30 (316) 379-9190
Lonestar Resources US Inc.,24044 Helena Way,Vilarinho da Castanheira,5140-279,+351 (101) 396-9233,mhuncoteht@kickstarter.com,http://deliciousdays.com,+48 (847) 900-7081
Immuron Limited,255 Summit Street,Doubravice nad Svitavou,679 11,+420 (385) 454-4192,lneilhu@npr.org,https://about.com,+351 (636) 693-4530
Microbot Medical Inc. ,36 Forest Dale Alley,Vrachnaíika,,+30 (593) 724-0989,eingrahamhv@yale.edu,https://google.fr,+7 (821) 441-0453
"Aldeyra Therapeutics, Inc.",12486 Mitchell Circle,Bulangan,,+62 (510) 388-9205,zdevohw@rediff.com,http://salon.com,+86 (603) 324-3775
Chesapeake Granite Wash Trust,3 Di Loreto Place,Duboka,,+381 (484) 909-3933,kmagovernhx@eventbrite.com,https://time.com,+55 (561) 540-7710
TiGenix,6 Twin Pines Hill,Thorpe,BD23,+44 (542) 778-3996,jcunniamhy@berkeley.edu,https://zdnet.com,+351 (665) 980-9601
"Cohen & Steers Closed-End Opportunity Fund, Inc.",79 Ronald Regan Plaza,Tambaksumur,,+62 (874) 349-5999,dwhitfieldhz@mayoclinic.com,http://sfgate.com,+62 (977) 542-2117
Apartment Investment and Management Company,1 Helena Way,Yonghe,,+86 (439) 122-5145,smollisoni0@woothemes.com,https://elegantthemes.com,+49 (758) 546-7264
"Tallgrass Energy GP, LP",488 Independence Pass,G’uzor,,+998 (452) 125-0458,cjouannini1@harvard.edu,https://cbslocal.com,+86 (237) 920-4347
Diamondrock Hospitality Company,6 Corben Place,Mae Fa Luang,25190,+66 (458) 237-1160,nciciurai2@behance.net,https://umich.edu,+62 (167) 878-8761
Canadian Natural Resources Limited,8 Sycamore Drive,Luhans’ke,,+380 (344) 355-9174,rsnalhami3@networksolutions.com,http://statcounter.com,+30 (794) 194-4394
Xylem Inc.,3 Hallows Parkway,Makrýgialos,,+30 (958) 943-7598,pdymondi4@about.me,https://cafepress.com,+351 (557) 597-7667
"Continental Building Products, Inc.",158 Victoria Point,Vetlanda,574 35,+46 (204) 140-8270,mthainei5@typepad.com,https://dyndns.org,+420 (534) 441-8323
Plexus Corp.,37 Hanover Road,Koksovyy,422847,+7 (235) 869-5797,ghawesi6@moonfruit.com,https://ebay.co.uk,+51 (223) 185-5362
Cooper Tire & Rubber Company,689 Holy Cross Parkway,Sartrouville,78504 CEDEX,+33 (187) 610-6340,fgrogori7@g.co,https://ted.com,+48 (676) 974-5347
"Energy Focus, Inc.",9 Golden Leaf Plaza,Robertsfors,915 32,+46 (965) 289-9589,bmuggi8@spiegel.de,http://ask.com,+234 (158) 387-3358
Hecla Mining Company,56124 Cordelia Drive,Chedao,,+86 (908) 461-7651,kgentyi9@sakura.ne.jp,https://canalblog.com,+63 (107) 564-0453
M&T Bank Corporation,67 Larry Crossing,Qaxa,,+86 (200) 807-1153,rrembrantia@4shared.com,https://marketwatch.com,+251 (138) 215-1419
PAVmed Inc.,6426 Trailsway Pass,Salerno,84135,+39 (471) 458-1446,jbestmanib@pinterest.com,http://army.mil,+81 (499) 406-7999
"Ironwood Pharmaceuticals, Inc.",30773 Loftsgordon Lane,Kuidou,,+86 (436) 614-0397,aigoic@squidoo.com,http://360.cn,+237 (911) 347-0882
"Tortoise MLP Fund, Inc.",53 Nobel Street,Curug,,+62 (469) 327-8871,mtongeid@delicious.com,http://google.ru,+62 (150) 525-7551
"Carolina Trust BancShares, Inc.",5 Ohio Drive,Karangasem Laok,,+62 (590) 998-5783,maskamie@facebook.com,https://mashable.com,+1 (940) 526-2691
"ProPhase Labs, Inc.",914 Mandrake Plaza,Baro Kunda,,+220 (765) 242-8752,nminelliif@seattletimes.com,https://histats.com,+389 (304) 105-2644
Avadel Pharmaceuticals plc,3 Park Meadow Junction,Mbumi,,+255 (728) 905-3082,tcountig@deliciousdays.com,https://wordpress.com,+970 (137) 880-8248
"Gener8 Maritime, Inc.",4 Algoma Lane,Torino,10152,+39 (377) 104-0444,scarolanih@cbc.ca,http://people.com.cn,+54 (872) 236-4750
American Equity Investment Life Holding Company,43 Hanover Junction,Borzęta,32-447,+48 (637) 862-1412,galgerii@dion.ne.jp,http://elegantthemes.com,+86 (514) 750-2579
Dollar General Corporation,4 Bobwhite Crossing,Krajan,,+62 (190) 726-5515,pfirkij@wordpress.com,https://issuu.com,+49 (966) 216-1311
"Surgery Partners, Inc.",618 Duke Crossing,Caraga,3710,+63 (438) 550-4018,mrenvoiseik@theatlantic.com,http://domainmarket.com,+34 (270) 136-1311
Eaton Vance Corporation,44 Weeping Birch Trail,Fleury-les-Aubrais,45404 CEDEX,+33 (706) 386-1450,alambregtsil@de.vu,https://omniture.com,+381 (564) 134-6536
"KVH Industries, Inc.",8132 Erie Terrace,Bao’an,,+86 (553) 871-0538,kmariaim@jalbum.net,https://posterous.com,+52 (428) 490-9359
Potbelly Corporation,9 International Crossing,Ellös,474 31,+46 (339) 852-9049,zstraingein@weebly.com,http://upenn.edu,+86 (256) 281-4130
"Sophiris Bio, Inc.",94 Butternut Pass,Sievi,85410,+358 (940) 237-8948,glilfordio@booking.com,https://flickr.com,+86 (233) 914-1336
"Core-Mark Holding Company, Inc.",7 Larry Alley,Pescara,65129,+39 (459) 323-1207,hdockseyip@tumblr.com,http://trellian.com,+84 (432) 510-1398
Alliance California Municipal Income Fund Inc,8 Green Ridge Terrace,Hesperange,L-5941,+352 (341) 848-0282,mcleftiq@tuttocitta.it,https://networksolutions.com,+52 (767) 551-8960
iStar Financial Inc.,072 Brentwood Junction,Kozlovice,739 47,+420 (835) 121-9102,sspraberryir@opera.com,http://dropbox.com,+62 (899) 877-5238
USD Partners LP,72 Darwin Way,Porkhov,164646,+7 (377) 251-6395,mgiovaniziois@ox.ac.uk,https://ihg.com,+994 (997) 147-3081
"Perma-Pipe International Holdings, Inc.",034 American Ash Crossing,Simão Dias,49480-000,+55 (704) 361-8536,ovashchenkoit@archive.org,http://oracle.com,+970 (759) 992-2641
"athenahealth, Inc.",43097 Manufacturers Drive,Kitāf,,+967 (169) 904-3331,katlingiu@tmall.com,http://mediafire.com,+420 (675) 632-8990
"Safeguard Scientifics, Inc.",449 Sherman Circle,Mochishche,630534,+7 (176) 162-4827,gfurmstoniv@youtube.com,http://dmoz.org,+86 (587) 136-5339
"Fortinet, Inc.",7585 Talmadge Road,Bajina Bašta,,+381 (560) 457-2155,bchallicumiw@ca.gov,https://biglobe.ne.jp,+33 (461) 538-3281
Ethan Allen Interiors Inc.,2 Hooker Park,Kampokpok,6536,+63 (518) 147-2516,cgilardoniix@businesswire.com,http://dmoz.org,+33 (578) 255-6384
Snap Inc.,62484 Kipling Drive,Estância,49200-000,+55 (128) 480-5306,lofeeneyiy@tinyurl.com,http://npr.org,+52 (798) 647-8050
"Hologic, Inc.",8153 Northfield Street,Fuzhuang,,+86 (602) 990-5476,jivakhnoiz@dmoz.org,https://mail.ru,+27 (135) 450-0490
First Trust NASDAQ-100 Ex-Technology Sector Index Fund,2641 Monument Street,Pavlovka,617820,+7 (224) 511-7089,garpinj0@icio.us,https://yahoo.com,+62 (601) 381-4013
First Trust Senior Loan Fund ETF,49836 Calypso Center,Prachatice,383 01,+420 (727) 904-0499,misaksonj1@tinypic.com,https://ebay.co.uk,+44 (269) 853-8005
"AAON, Inc.",1900 Magdeline Circle,Nikolayevka,430901,+7 (461) 875-5026,enieldj2@oakley.com,http://webmd.com,+53 (337) 413-6061
"Sandy Spring Bancorp, Inc.",401 Spohn Circle,Hongmei,,+86 (148) 125-5586,delderfieldj3@facebook.com,http://walmart.com,+33 (319) 835-8717
"Chico's FAS, Inc.",331 Mayer Street,El Mirador,56564,+52 (682) 445-3751,iabeauj4@posterous.com,https://qq.com,+86 (563) 515-9244
"Parsley Energy, Inc.",0 Mayfield Alley,Melaka,75518,+60 (255) 410-8493,hvaldesj5@tamu.edu,https://google.com.br,+33 (405) 117-7374
"Codexis, Inc.",9 Huxley Way,Kende,,+234 (424) 126-7808,dsedgmondj6@constantcontact.com,http://cbslocal.com,+48 (718) 279-6603
ABB Ltd,5267 Blackbird Parkway,Dietaisi,,+86 (977) 380-4433,eferronelj7@cbslocal.com,https://discuz.net,+86 (582) 267-1597
"Select Bancorp, Inc.",747 Golf Course Alley,Yanshou,,+86 (993) 883-7864,ghighwoodj8@g.co,https://admin.ch,+1 (561) 587-3473
Forward Pharma A/S,50519 Fieldstone Avenue,Abay,,+7 (943) 263-1227,kbackenj9@skyrock.com,http://yellowbook.com,+63 (578) 894-9367
DragonWave Inc,8508 Scott Terrace,Ballymun,D11,+353 (932) 400-5438,dyakutinja@hc360.com,http://unesco.org,+389 (626) 673-0751
Allstate Corporation (The),515 Debra Junction,Lap Lae,65160,+66 (953) 788-6105,jbrandhardyjb@cdc.gov,http://slate.com,+86 (470) 731-7940
American Vanguard Corporation,9 Clyde Gallagher Trail,Tuopu,,+86 (356) 379-9265,tfoddyjc@elpais.com,http://sitemeter.com,+7 (256) 940-0729
State Bank Financial Corporation.,1 Hanover Circle,Slatina,10346,+385 (155) 361-8195,aminocchijd@51.la,http://soup.io,+62 (744) 147-0956
China XD Plastics Company Limited,59728 Rusk Pass,Cawayan Bugtong,4332,+63 (489) 907-3304,etantije@nsw.gov.au,http://4shared.com,+252 (415) 447-0033
"Clear Channel Outdoor Holdings, Inc.",04 Utah Center,Al Abyār,,+218 (219) 232-9928,ssandeverjf@fc2.com,http://dailymotion.com,+351 (527) 146-9066
"Gevo, Inc.",49431 Nobel Terrace,Ganquan,,+86 (345) 291-1320,mbrittianjg@tumblr.com,https://salon.com,+86 (649) 677-1681
"Antares Pharma, Inc.",977 Novick Crossing,Qiaozi,,+86 (824) 933-5204,jplenderleithjh@time.com,https://chronoengine.com,+7 (417) 725-0585
"ATN International, Inc.",239 Mayer Way,Lucan,K78,+353 (500) 504-8861,wsiddenji@fda.gov,http://bizjournals.com,+359 (780) 987-9149
"F5 Networks, Inc.",73778 Golf Place,Woshui,,+86 (773) 233-9510,elonderjj@twitpic.com,https://storify.com,+374 (973) 914-5020
"World Wrestling Entertainment, Inc.",6210 Rutledge Circle,Xirikxiy,,+86 (865) 237-0365,ddogjk@wunderground.com,http://telegraph.co.uk,+86 (736) 118-7782
Nuveen AMT-Free Municipal Value Fund,0 Ridgeway Lane,Hantsport,N5A,+1 (683) 929-1113,jsoltanjl@earthlink.net,http://aol.com,+7 (422) 740-5252
"Sonus Networks, Inc.",5091 Green Park,Grazhdanka,692327,+7 (829) 527-4054,odrennanjm@zdnet.com,https://imgur.com,+383 (103) 270-4928
"Okta, Inc.",71 Rieder Park,Falun,791 75,+46 (389) 642-3050,mahrensjn@sogou.com,https://answers.com,+52 (456) 144-7888
"InnerWorkings, Inc.",5 Leroy Drive,Nancy,54046 CEDEX,+33 (254) 776-3805,colivazzijo@photobucket.com,http://so-net.ne.jp,+62 (810) 625-1824
First Trust Nasdaq Pharmaceuticals ETF,959 Birchwood Circle,Čakovec,40000,+385 (670) 395-6842,afieldenjp@home.pl,http://businessweek.com,+963 (376) 407-0322
"Himax Technologies, Inc.",644 Bunker Hill Avenue,Jatimulyo,,+62 (306) 827-4173,dbraimjq@godaddy.com,http://google.com,+218 (934) 321-7217
"KMG Chemicals, Inc.",3755 Carey Trail,Kasese,,+256 (951) 130-7073,tmeekingsjr@joomla.org,http://soundcloud.com,+1 (406) 118-5563
"Goldman Sachs BDC, Inc.",08058 Superior Way,Sala,733 31,+46 (907) 503-7593,croddajs@twitpic.com,http://indiegogo.com,+351 (852) 532-0843
"Mesa Laboratories, Inc.",33 Hanson Point,Kukawa,,+234 (796) 496-3893,tbrindedjt@nymag.com,http://mapy.cz,+62 (909) 312-5666
"Lake Shore Bancorp, Inc.",245 Debs Hill,Tangkil,,+62 (757) 139-8444,gcalcutju@reference.com,https://latimes.com,+86 (183) 264-9446
"White Mountains Insurance Group, Ltd.",254 Magdeline Street,Shangde,,+86 (990) 756-8048,soferrisjv@omniture.com,https://cnn.com,+86 (357) 511-2152
Carlisle Companies Incorporated,2731 Blaine Trail,Cimanggu Wetan,,+62 (524) 611-1687,jmoaksonjw@google.pl,http://vimeo.com,+55 (959) 362-3231
"ARC Document Solutions, Inc.",923 Dayton Trail,Peimei,,+86 (892) 225-0706,dartheyjx@alibaba.com,http://npr.org,+355 (639) 660-4679
Tecogen Inc.,68 Farmco Drive,Shunyi,,+86 (995) 271-6843,helcoatjy@slate.com,https://ycombinator.com,+33 (329) 975-2845
EDAP TMS S.A.,66496 Crowley Point,Tianxingchang,,+86 (912) 874-7874,avedeniktovjz@google.nl,http://bloglovin.com,+46 (730) 830-1219
Altisource Portfolio Solutions S.A.,7350 Ruskin Park,Tijão,4880-106,+351 (214) 551-1420,bdawleyk0@umich.edu,http://psu.edu,+62 (877) 450-6346
DoubleLine Opportunistic Credit Fund,53 Del Mar Road,Las Palmas,40054,+52 (251) 320-8610,epledgerk1@archive.org,http://acquirethisname.com,+86 (958) 915-0150
"B. Riley Financial, Inc.",253 Bluestem Road,Figueira,8650-153,+351 (513) 757-6644,kgarratk2@blog.com,https://indiatimes.com,+86 (600) 472-8832
"UMH Properties, Inc.",48 Petterle Parkway,Spartanburg,29305,+1 (864) 874-2218,nbrugemannk3@redcross.org,http://salon.com,+86 (546) 804-8141
EchoStar Corporation,590 Fisk Court,Halmstad,302 70,+46 (340) 779-8791,judiek4@tripadvisor.com,http://telegraph.co.uk,+63 (546) 349-2692
Blackrock New York Municipal Bond Trust,26777 Moulton Way,Anka,,+234 (952) 364-3442,djorissenk5@woothemes.com,https://chron.com,+355 (994) 214-2028
VEON Ltd.,71295 Burrows Junction,Merdeka,,+62 (143) 392-6481,jlowdesk6@statcounter.com,http://geocities.jp,+63 (703) 995-3716
"Rennova Health, Inc.",5 Carpenter Avenue,Mġarr,MGR,+356 (210) 766-7668,ebeswickk7@java.com,http://cnn.com,+62 (630) 520-4918
"Baldwin & Lyons, Inc.",672 Hanson Alley,Obubra,,+234 (301) 438-6452,vmuzzallk8@pen.io,https://meetup.com,+62 (921) 914-7333
"Prudential Financial, Inc.",8843 Mayer Point,Mueang Nonthaburi,11120,+66 (411) 331-5834,cskentelberyk9@nature.com,https://flickr.com,+967 (673) 890-8695
"Rambus, Inc.",732 Esch Point,Roun Satu,,+62 (619) 355-8659,aduddleka@stanford.edu,http://google.ru,+380 (880) 784-9268
First Trust Nasdaq Oil & Gas ETF,6 1st Trail,Kendalrejo,,+62 (500) 506-5483,cscanlonkb@devhub.com,http://gmpg.org,+7 (404) 972-1280
"Everspin Technologies, Inc.",645 Brown Drive,Bagiktinggang,,+62 (470) 107-2632,rtaggertkc@nydailynews.com,http://blog.com,+237 (700) 751-0480
THL Credit Senior Loan Fund,23557 Mandrake Plaza,Qiaosi,,+86 (364) 217-7718,beastcourtkd@yellowbook.com,https://nydailynews.com,+86 (772) 698-4244
"Douglas Dynamics, Inc.",8145 Corben Parkway,Hedong,,+86 (738) 615-9724,gprobertke@netlog.com,http://sun.com,+48 (347) 332-5197
Blackrock Muni New York Intermediate Duration Fund Inc,11 Buhler Way,København,1567,+45 (912) 414-0705,nmcterrykf@harvard.edu,http://360.cn,+93 (811) 787-0999
PartnerRe Ltd.,51177 Sloan Alley,Moravská Třebová,571 01,+420 (881) 138-5655,sleederkg@cyberchimps.com,https://blog.com,+55 (590) 501-1410
VictoryShares US EQ Income Enhanced Volatility Wtd ETF,17164 Schlimgen Crossing,Kaberamaido,,+256 (653) 438-6725,cbrumbykh@instagram.com,http://123-reg.co.uk,+34 (193) 816-6451
"Blackrock Corporate High Yield Fund, Inc.",95 Killdeer Way,Aldeia de Juzo,2750-015,+351 (377) 729-9281,rgwynnki@sakura.ne.jp,http://ed.gov,+46 (273) 753-3710
Tucows Inc.,64352 Hudson Park,Damaishan,,+86 (371) 530-4882,gleakekj@free.fr,http://cbsnews.com,+63 (695) 465-0762
"Penn National Gaming, Inc.",38 Esker Hill,Rudong,,+86 (949) 341-0488,khambribekk@bing.com,https://slashdot.org,+81 (961) 736-1626
"Forterra, Inc.",259 West Place,Uurainen,41231,+358 (532) 107-7384,iraggittkl@accuweather.com,http://4shared.com,+86 (756) 572-0943
"Retail Properties of America, Inc.",76908 Loftsgordon Court,Nueva Loja,,+593 (174) 355-9976,bgoodmankm@businessinsider.com,https://nature.com,+66 (796) 599-0313
"Maiden Holdings, Ltd.",4 Bayside Park,Karanganyar,,+62 (238) 522-9674,edyterkn@cdbaby.com,https://nsw.gov.au,+48 (423) 278-5944
Columbus McKinnon Corporation,5708 Moland Way,Hutou,,+86 (825) 483-0778,klangsburyko@imdb.com,http://exblog.jp,+52 (405) 223-5797
Eaton Vance Senior Floating-Rate Fund,25292 Comanche Plaza,Bauta,,+53 (717) 402-4325,wsheratonkp@domainmarket.com,https://java.com,+977 (764) 911-1202
Fidelity and Guaranty Life,030 Anderson Parkway,Tourcoing,59208 CEDEX,+33 (194) 338-4367,odevitakq@disqus.com,https://apple.com,+86 (352) 206-4181
John Bean Technologies Corporation,3117 Loftsgordon Terrace,Puutura,,+62 (645) 722-4876,gdimitriekr@skype.com,http://answers.com,+33 (277) 283-0144
"Everest Re Group, Ltd.",36 Warrior Pass,Huangliu,,+86 (446) 944-8999,lmunceyks@instagram.com,https://gnu.org,+46 (242) 246-0444
National Fuel Gas Company,4 Hoard Alley,Padilla,,+591 (486) 430-0064,candreykt@studiopress.com,http://nifty.com,+234 (926) 703-4653
"BroadVision, Inc.",8 Killdeer Drive,Maoyang,,+86 (321) 948-8221,sthorntondewhirstku@discovery.com,http://mashable.com,+62 (577) 315-0559
"PowerShares QQQ Trust, Series 1",6 Hansons Street,Jubao,,+86 (766) 201-5180,imacpheekv@slideshare.net,https://opensource.org,+86 (666) 486-3229
Cerus Corporation,1269 Spaight Avenue,Achada,9630-015,+351 (850) 340-9766,dbernardikw@economist.com,http://mozilla.org,+86 (199) 727-0809
"Photronics, Inc.",209 Vidon Point,Marseille,13245 CEDEX 04,+33 (720) 997-4678,pbriscowkx@canalblog.com,http://mapy.cz,+1 (256) 302-8974
EPR Properties,59 Bunker Hill Lane,An Nāşirīyah,,+964 (667) 860-7753,ghaffardky@angelfire.com,http://cbsnews.com,+86 (522) 233-9780
"NETGEAR, Inc.",1 Badeau Drive,Kangxung,,+86 (918) 734-7608,carnowitzkz@tmall.com,http://tumblr.com,+382 (922) 414-5288
Accuray Incorporated,389 Eagle Crest Trail,Ulricehamn,523 90,+46 (538) 482-9985,emcmillaml0@goo.ne.jp,http://prlog.org,+1 (805) 572-0786
"CBL & Associates Properties, Inc.",5 Moose Court,Shalinskoye,663510,+7 (749) 819-2947,oguinessl1@netscape.com,https://addthis.com,+55 (866) 243-6594
EMC Insurance Group Inc.,89 Onsgard Pass,Alangalang,6517,+63 (833) 447-0266,nwethersl2@businesswire.com,https://networkadvertising.org,+86 (837) 473-3572
Western Asset Mortgage Capital Corporation,6 Westerfield Street,Anding,,+86 (983) 845-7339,hinnettl3@marriott.com,https://tripadvisor.com,+86 (568) 233-5799
RiceBran Technologies,36 Sauthoff Terrace,Suchedniów,26-130,+48 (981) 148-0928,nmatthiesonl4@google.com.hk,http://comcast.net,+63 (508) 322-7839
Enterprise Products Partners L.P.,573 Sherman Avenue,Reims,51064 CEDEX,+33 (483) 712-7700,sgeeritsl5@php.net,http://archive.org,+55 (486) 776-6012
Luna Innovations Incorporated,38440 Oneill Point,Espírito Santo do Pinhal,13990-000,+55 (629) 265-0213,wrushel6@accuweather.com,http://weibo.com,+63 (749) 848-8086
Elbit Imaging Ltd.,434 Del Sol Pass,Cumming,30130,+1 (404) 814-0830,ogaylordl7@hp.com,https://people.com.cn,+86 (319) 623-8849
"Midland States Bancorp, Inc.",9659 Scoville Street,Kuching,93722,+60 (909) 583-6251,lpolettol8@ycombinator.com,http://usa.gov,+63 (884) 749-0215
Saban Capital Acquisition Corp.,87149 New Castle Junction,Mergayu,,+62 (755) 330-4434,adugol9@mayoclinic.com,https://noaa.gov,+48 (793) 475-0276
Nabriva Therapeutics AG,16876 Gerald Plaza,Santa Adélia,15950-000,+55 (810) 501-9164,ctillyla@purevolume.com,https://dmoz.org,+387 (180) 980-8522
WPCS International Incorporated,6255 Canary Center,Kilim,6521,+63 (532) 703-1785,tbrydelb@ibm.com,https://xrea.com,+994 (864) 962-5581
American Homes 4 Rent,9 Florence Court,Tirana,,+355 (439) 788-7405,bfollanlc@nasa.gov,https://istockphoto.com,+972 (975) 306-4073
PowerShares S&P SmallCap Information Technology Portfolio,3760 Acker Way,Péplos,,+30 (399) 731-3221,dbaumberld@home.pl,https://senate.gov,+7 (689) 208-8444
First Trust South Korea AlphaDEX Fund,2 Clove Avenue,Wakiso,,+256 (480) 183-0279,movellle@house.gov,http://topsy.com,+33 (803) 724-9977
"Rockwell Medical, Inc.",4362 Mosinee Circle,Macha,,+86 (431) 578-9908,brubinowlf@youtu.be,https://dmoz.org,+48 (125) 624-3229
Vantage Energy Acquisition Corp.,22 Burrows Alley,Lampang,52000,+66 (653) 911-4187,togavenlg@sciencedirect.com,http://csmonitor.com,+420 (907) 651-7598
"ParkerVision, Inc.",6262 Arkansas Place,Manamrag,6811,+63 (984) 675-9805,mmackenlh@oaic.gov.au,http://myspace.com,+62 (253) 670-9060
Gabelli Dividend,192 Bartillon Circle,Proletarsk,347554,+7 (685) 322-1850,ksilversli@huffingtonpost.com,http://reddit.com,+48 (871) 621-7700
Pentair plc.,86058 Clemons Pass,Yaozhanzi,,+86 (769) 217-3876,kbagguleylj@springer.com,https://nationalgeographic.com,+86 (252) 139-2152
"Itron, Inc.",91997 Crownhardt Point,Zhentian,,+86 (410) 565-6771,kmcdonelllk@vkontakte.ru,http://com.com,+62 (801) 792-6521
Briggs & Stratton Corporation,4 Namekagon Point,Allacapan,3523,+63 (926) 567-9625,eokenfoldll@alexa.com,http://chicagotribune.com,+966 (994) 601-3246
Banco De Chile,621 Larry Parkway,Suvorov,301439,+7 (101) 635-9089,lbraceylm@twitpic.com,http://newsvine.com,+63 (770) 841-0270
Matrix Service Company,1 Meadow Vale Place,São João,4890-484,+351 (242) 646-5685,fharborowln@miitbeian.gov.cn,http://freewebs.com,+386 (375) 295-2137
WeatherStorm Forensic Accounting Long Short ETF,52 Lerdahl Pass,Aracati,62800-000,+55 (637) 841-8175,amccaughanlo@alibaba.com,http://imgur.com,+212 (680) 952-9505
"Micron Technology, Inc.",1 Emmet Hill,Łobodno,42-125,+48 (823) 658-3293,bgilkslp@discuz.net,http://wufoo.com,+356 (737) 911-8205
ENSCO plc,02 Monument Drive,Iecava,,+371 (648) 298-3405,candrassylq@theguardian.com,https://ca.gov,+55 (445) 579-6465
NF Energy Saving Corporation,6 Vernon Crossing,Wierzchosławice,33-122,+48 (998) 675-0312,nbromidgelr@thetimes.co.uk,http://berkeley.edu,+504 (244) 733-3196
New Home Company Inc. (The),480 Merry Terrace,Lugui,4612,+63 (173) 728-1902,bpaulels@home.pl,https://elpais.com,+254 (720) 335-7673
"Hamilton Bancorp, Inc.",89899 Hazelcrest Way,Huamachuco,,+51 (456) 926-2276,hjeffcoatlt@miitbeian.gov.cn,http://hubpages.com,+506 (584) 404-2888
"Planet Fitness, Inc.",2 Browning Alley,Maqiu,,+86 (779) 169-2316,agettenslu@tamu.edu,http://independent.co.uk,+62 (461) 135-4595
Purefunds Solactive FinTech ETF,82151 Lotheville Point,Łaszczów,22-650,+48 (252) 700-7432,pbrahmerlv@amazon.de,http://github.com,+57 (407) 946-9257
"Determine, Inc. ",0 Monument Street,Al Mazzūnah,,+216 (401) 734-5511,spovelelw@studiopress.com,http://mashable.com,+33 (575) 784-1683
"Onconova Therapeutics, Inc.",64090 Judy Parkway,El Regalo,,+58 (120) 685-4841,emelbournelx@house.gov,https://twitpic.com,+7 (550) 626-2489
AMREP Corporation,82 Utah Point,Plymouth,,+1 (367) 706-9100,rcraighallly@wsj.com,https://nps.gov,+62 (526) 890-9710
"Blackrock MuniVest Fund II, Inc.",8576 Lake View Street,Klippan,264 31,+46 (321) 334-2101,vtytcomblz@miitbeian.gov.cn,https://angelfire.com,+63 (784) 130-1474
"Nivalis Therapeutics, Inc.",70 Vidon Junction,Horní Cerekev,394 03,+420 (414) 486-1089,bgeffem0@shareasale.com,http://elegantthemes.com,+380 (495) 210-9210
"Alliance HealthCare Services, Inc.",26 Sloan Trail,Noisy-le-Grand,93164 CEDEX,+33 (860) 215-0586,apowerm1@google.co.jp,http://t.co,+7 (879) 250-7353
Global Eagle Entertainment Inc.,0 Cardinal Road,Quthing,,+266 (857) 858-2018,mwalklettm2@aboutads.info,http://tripod.com,+33 (384) 925-9363
"H&E Equipment Services, Inc.",42 Burning Wood Way,Madamba,9314,+63 (508) 745-3716,erobsonm3@berkeley.edu,https://earthlink.net,+351 (614) 433-1634
Fifth Street Senior Floating Rate Corp.,7269 Arapahoe Plaza,Liudaogou,,+86 (904) 781-0842,aconnerlym4@studiopress.com,https://51.la,+598 (357) 196-8105
CoreSite Realty Corporation,034 Burrows Parkway,Pavliš,,+381 (868) 547-2573,dgleavem5@slideshare.net,https://howstuffworks.com,+7 (264) 692-5688
Scudder Municiple Income Trust,01 Logan Hill,Dasht-e Lati,,+98 (361) 598-7543,lleucharsm6@networksolutions.com,http://blinklist.com,+216 (798) 150-1720
Moog Inc.,43872 Nevada Lane,Seattle,98158,+1 (425) 858-7218,pstoltingm7@springer.com,https://yolasite.com,+93 (560) 863-0129
"Kimball International, Inc.",64 Morning Avenue,Armamar,5110-125,+351 (285) 739-0254,djaneczekm8@businessweek.com,http://netscape.com,+351 (674) 295-4053
International Paper Company,845 Elka Road,Kristiansund N,6506,+47 (137) 506-3223,msamblesm9@newyorker.com,http://hugedomains.com,+62 (109) 991-1254
"Banco Santander, S.A.",95 Corry Place,Bourail,98870,+687 (640) 367-1730,jstroobandma@163.com,https://thetimes.co.uk,+55 (501) 711-0185
"AmeriGas Partners, L.P.",38 Manitowish Road,Maji,,+86 (620) 235-8782,mcuddemb@addthis.com,http://lycos.com,+86 (439) 382-2430
Enduro Royalty Trust,507 Schiller Plaza,Pu’er,,+86 (951) 327-2576,mcausbymc@sohu.com,https://flavors.me,+48 (321) 977-0080
Rice Energy Inc.,08 Garrison Road,General Pico,6360,+54 (381) 215-3510,aalgarmd@canalblog.com,https://blogs.com,+84 (537) 646-6684
"Agilysys, Inc.",3141 Killdeer Junction,Munsan,,+82 (349) 751-1550,apennicardme@twitpic.com,https://cornell.edu,+62 (657) 131-8678
"Hercules Capital, Inc.",4332 Fisk Terrace,Casal do Relvas,2440-341,+351 (496) 275-8169,dnorthcliffemf@a8.net,https://soup.io,+7 (800) 552-7044
"CYS Investments, Inc.",12034 Mandrake Road,Barkol,,+86 (676) 863-9568,bbyattmg@google.com,http://rediff.com,+54 (147) 443-0128
"Stratasys, Ltd.",774 Lukken Parkway,Yuty,,+595 (355) 368-1880,mbosmanmh@digg.com,https://wired.com,+229 (699) 142-1408
Mechel PAO,6 Iowa Avenue,Kempele,90451,+358 (589) 364-9582,ulopemi@deviantart.com,http://stumbleupon.com,+86 (221) 544-3132
Strattec Security Corporation,87 Emmet Crossing,Morrison,2568,+54 (757) 391-4240,agreensitemj@goo.gl,http://rambler.ru,+966 (506) 201-4604
Valvoline Inc.,67 Oneill Alley,Shuangtang,,+86 (732) 875-2855,tdeportemk@webnode.com,http://economist.com,+81 (148) 517-9106
"Windstream Holdings, Inc.",023 Schiller Center,Klinan,9504,+63 (273) 725-2491,cplacstoneml@bbb.org,https://last.fm,+86 (333) 398-2899
"Extended Stay America, Inc.",45256 Transport Pass,Pinghu,,+86 (735) 801-2659,ibrissardmm@ebay.com,https://yandex.ru,+375 (231) 878-0201
"Lowe's Companies, Inc.",141 Mayer Trail,Krasnaye,,+375 (326) 270-8470,chamsonmn@sohu.com,https://sfgate.com,+7 (384) 903-2552
"United-Guardian, Inc.",3 7th Way,Booterstown,D04,+353 (718) 901-2748,cfeigemo@redcross.org,https://reference.com,+33 (304) 317-3864
Adamis Pharmaceuticals Corporation,7 North Lane,Umeå,904 35,+46 (641) 452-2928,mklaismp@paypal.com,http://businesswire.com,+86 (962) 494-0577
"People's United Financial, Inc.",74251 American Ash Pass,Tambarangan,,+62 (923) 543-7960,vschiementzmq@dell.com,http://csmonitor.com,+86 (500) 830-5429
Nuveen AMT-Free Municipal Credit Income Fund,96 Mayfield Parkway,Arrabal,2420-005,+351 (102) 854-2584,vdelascimr@parallels.com,http://barnesandnoble.com,+351 (972) 983-1123
Ashford Hospitality Trust Inc,1141 Hollow Ridge Hill,Pasirgaru,,+62 (566) 629-2305,mjanuarystms@hp.com,http://usgs.gov,+86 (317) 274-5176
Bruker Corporation,95375 Crownhardt Avenue,Nandulehe,,+86 (118) 957-6949,msimeonemt@godaddy.com,http://examiner.com,+86 (276) 128-8824
"PRA Group, Inc.",14446 Morningstar Drive,Cáceres,052458,+57 (468) 653-2132,ctayloemu@ihg.com,http://wordpress.com,+223 (561) 221-5384
"Brookline Bancorp, Inc.",5 Surrey Place,Santa Maria,8011,+63 (947) 910-1603,bkrolikmv@eepurl.com,https://nih.gov,+234 (532) 676-2040
"Old Dominion Freight Line, Inc.",5914 Sunbrook Terrace,Kajansi,,+256 (319) 443-0740,btresisemw@xrea.com,http://unblog.fr,+263 (341) 899-4088
"Carrols Restaurant Group, Inc.",18 Jackson Place,Hushaat,,+976 (758) 995-8516,obingleymx@house.gov,http://usgs.gov,+216 (759) 908-0162
"Summer Infant, Inc.",0630 Rutledge Parkway,Encontrados,,+58 (907) 215-9776,rduesburymy@kickstarter.com,https://spiegel.de,+355 (977) 280-7100
Gladstone Commercial Corporation,1 Springview Lane,Akhtarīn,,+963 (546) 785-6163,aholsonmz@exblog.jp,http://purevolume.com,+55 (118) 946-4234
"Vera Bradley, Inc.",33 Artisan Junction,Khoroshëvo-Mnevniki,676280,+7 (597) 639-3269,tbenden0@nymag.com,http://cocolog-nifty.com,+86 (383) 250-9940
Assured Guaranty Ltd.,2522 Marquette Street,Sykiés,,+30 (426) 846-0011,tcrabbn1@ycombinator.com,https://gmpg.org,+33 (733) 573-4439
"MEI Pharma, Inc.",845 Mariners Cove Center,Banjar Bali,,+62 (189) 784-7037,wloughlann2@acquirethisname.com,http://desdev.cn,+7 (655) 367-0458
Ameren Corporation,42271 Spaight Circle,Ambatondrazaka,,+261 (467) 564-9850,cbarden3@hatena.ne.jp,http://vinaora.com,+63 (475) 222-6590
"America First Multifamily Investors, L.P.",703 New Castle Plaza,Zhaxi,,+86 (993) 351-6910,fjanousn4@tuttocitta.it,https://51.la,+94 (950) 954-7680
China Recycling Energy Corporation,23598 Esch Plaza,Sobo,,+62 (941) 245-0396,rsakern5@icq.com,https://storify.com,+84 (270) 308-0594
Nordson Corporation,9286 Westend Circle,Kotor,,+382 (707) 606-4467,hkmentn6@spotify.com,http://joomla.org,+63 (954) 312-1586
NewMarket Corporation,79704 Hanson Alley,Soubré,,+225 (814) 945-6143,rwaleworken7@soup.io,http://vistaprint.com,+502 (607) 180-0578
"Five Below, Inc.",36840 Valley Edge Park,Zhongling,,+86 (219) 941-0192,qzapatan8@indiatimes.com,http://opensource.org,+54 (151) 117-9688
Embotelladora Andina S.A.,97 Sherman Way,Hezhai,,+86 (410) 926-2532,ltomaellon9@yahoo.co.jp,https://reverbnation.com,+1 (646) 731-8135
South State Corporation,03 North Alley,Camajuaní,,+53 (374) 575-1829,tchallenerna@csmonitor.com,http://kickstarter.com,+62 (983) 169-8243
"The Michaels Companies, Inc.",85300 Merrick Pass,Lazaro Cardenas,75710,+52 (363) 483-5388,evannernb@google.pl,https://lulu.com,+86 (566) 972-4020
Fulton Financial Corporation,1982 Forest Way,Machala,,+593 (454) 851-2178,fibannc@sciencedirect.com,https://myspace.com,+351 (501) 704-5491
"American Public Education, Inc.",692 Summer Ridge Avenue,Nowa Sól,67-101,+48 (312) 969-5490,mjeppend@xrea.com,https://smh.com.au,+56 (425) 128-2530
"NextEra Energy, Inc.",64555 Homewood Lane,Karangnongko,,+62 (363) 636-8509,bfautleyne@php.net,https://hp.com,+86 (921) 243-8398
Domino's Pizza Inc,37 Fuller Court,Douane,,+216 (737) 292-8681,ofeldkleinnf@1und1.de,http://wp.com,+62 (343) 232-9010
OFS Capital Corporation,8598 Oxford Lane,Huaidian,,+86 (416) 775-3253,glambourneng@vk.com,https://com.com,+48 (606) 677-5545
Ellington Financial LLC,61 5th Lane,Kubang,,+62 (389) 379-0898,baulsfordnh@irs.gov,https://netscape.com,+86 (442) 665-6234
PolyOne Corporation,4 Esker Avenue,Kachkanar,624357,+7 (848) 450-5866,abeardsdaleni@jalbum.net,http://nsw.gov.au,+98 (145) 815-7705
"Reliv' International, Inc.",96717 Dwight Circle,Kandangan,,+62 (527) 574-0039,smillannj@fema.gov,https://xrea.com,+1 (305) 178-6328
Kayne Anderson MLP Investment Company,6 South Pass,Haizigou,,+86 (632) 406-0041,jstertenk@columbia.edu,http://paginegialle.it,+420 (668) 796-7888
"Prudential Financial, Inc.",2 Jackson Plaza,Denver,80279,+1 (303) 794-1005,eollandnl@mysql.com,https://ustream.tv,+98 (750) 163-2054
Lennar Corporation,35 Stone Corner Center,Quy Đạt,,+84 (263) 224-5723,smitroshinovnm@cnbc.com,http://businesswire.com,+231 (191) 962-2627
"CareTrust REIT, Inc.",2 Kim Road,Sadang Kulon,,+62 (977) 357-0467,ghowoodnn@spotify.com,https://360.cn,+265 (590) 751-0380
"SunCoke Energy Partners, L.P.",69 Banding Junction,Karakol,,+996 (511) 243-0931,bstileno@live.com,http://ucla.edu,+86 (304) 788-4905
"ARMOUR Residential REIT, Inc.",86 Crownhardt Crossing,Nayoro,607-8077,+81 (526) 771-0842,msewartnp@dropbox.com,http://naver.com,+62 (649) 649-9748
"Holly Energy Partners, L.P.",7206 Rowland Place,Orlando,32830,+1 (407) 418-5933,fgowngenq@ucsd.edu,https://ustream.tv,+86 (519) 490-9264
First Trust RiverFront Dynamic Asia Pacific ETF,766 Independence Road,Baddomalhi,22501,+92 (581) 464-7376,vlanslynr@washington.edu,http://nyu.edu,+63 (393) 663-9627
"The Travelers Companies, Inc.",82 Village Center,Cibulakan,,+62 (867) 433-2496,frumpns@bloomberg.com,http://yellowbook.com,+51 (935) 737-1923
"Cedar Realty Trust, Inc.",04205 Warbler Court,Yunshan,,+86 (333) 380-6305,mfulknt@is.gd,https://theguardian.com,+44 (935) 713-1972
"Natera, Inc.",42 Doe Crossing Hill,Antiguo Cuscatlán,,+503 (359) 106-0937,krevelynu@free.fr,http://myspace.com,+48 (268) 270-3095
Cubic Corporation,37 Bunker Hill Terrace,Pushkin,196627,+7 (235) 451-7851,jacedonv@about.com,https://jugem.jp,+98 (274) 181-3104
"Walgreens Boots Alliance, Inc.",6191 Upham Way,Saint-Quentin-en-Yvelines,78925 CEDEX 9,+33 (907) 674-0764,epulfernw@theguardian.com,http://blogs.com,+30 (377) 274-7627
"Carrols Restaurant Group, Inc.",688 Lillian Plaza,Estela,4570-198,+351 (492) 532-1281,jyurmanovevnx@toplist.cz,https://geocities.jp,+51 (275) 430-7704
"Buffalo Wild Wings, Inc.",63662 Superior Plaza,Tullamore,R35,+353 (459) 971-2571,mbavisterny@phoca.cz,https://who.int,+351 (778) 141-2662
ROBO Global Robotics and Automation Index ETF,4 Springview Drive,Fencheng,,+86 (221) 675-4249,rwoollettnz@taobao.com,https://gravatar.com,+375 (712) 287-4306
"Paratek Pharmaceuticals, Inc. ",0 Gulseth Center,Klek,,+381 (912) 399-0655,ugrimmo0@deviantart.com,https://army.mil,+55 (482) 718-6887
"LM Funding America, Inc.",5574 Loeprich Trail,Liusi,,+86 (918) 565-1742,ksevero1@oakley.com,http://cyberchimps.com,+86 (925) 955-4945
"Tilly's, Inc.",2 Drewry Circle,Kondrovo,422102,+7 (695) 844-1487,dbrahmo2@sfgate.com,https://bloglovin.com,+63 (894) 696-5922
Tecogen Inc.,4786 Columbus Circle,Cucutilla,544529,+57 (578) 806-0145,gburgwyno3@washingtonpost.com,http://mit.edu,+62 (262) 194-7185
"GTY Technology Holdings, Inc.",6 Brentwood Point,Lodwar,,+254 (535) 437-9246,meuesdeno4@fema.gov,https://csmonitor.com,+48 (622) 783-1107
S&P Global Inc.,4921 Becker Plaza,Jinshan,,+86 (975) 876-5776,cpietascho5@ezinearticles.com,https://merriam-webster.com,+358 (811) 693-9415
"Anthem, Inc.",61 Northview Plaza,Santa Bernardina,,+598 (614) 215-6033,echaytoro6@google.fr,https://ehow.com,+52 (630) 412-9553
United Technologies Corporation,183 Sachtjen Way,Nūbā,,+970 (599) 324-4754,driccioppoo7@wired.com,https://barnesandnoble.com,+7 (101) 553-0380
STORE Capital Corporation,58279 School Way,Osapsio,,+62 (748) 899-1772,sdiniso8@mapquest.com,https://theatlantic.com,+55 (768) 438-5777
"Banc of California, Inc.",3 Florence Drive,Jiaze,,+86 (556) 130-3919,mkinnono9@pen.io,https://spotify.com,+385 (633) 106-5014
"Walgreens Boots Alliance, Inc.",0 Meadow Vale Terrace,Yong’an,,+86 (612) 912-8777,sbittertonoa@reuters.com,http://chron.com,+47 (799) 377-2584
"ASB Bancorp, Inc.",28 Gina Lane,Krenggan,,+62 (725) 731-4198,acamlinob@youku.com,http://geocities.com,+351 (637) 305-6557
Investors Real Estate Trust,271 Clemons Center,Longkou,,+86 (703) 141-6959,gwisamoc@wikispaces.com,http://51.la,+261 (762) 667-4445
Canadian Imperial Bank of Commerce,80 Merrick Pass,Arbaoua,,+212 (894) 874-2857,gnoriegaod@topsy.com,http://mashable.com,+970 (140) 780-5649
Quinpario Acquisition Corp. 2,18 Caliangt Terrace,Forestville,G2B,+1 (410) 908-2262,eglasermanoe@1und1.de,http://ucoz.ru,+357 (222) 388-4213
"Greenlight Reinsurance, Ltd.",4713 Grayhawk Plaza,Brak,,+218 (347) 613-2016,rspadaof@apache.org,https://hp.com,+62 (769) 832-5916
"Twitter, Inc.",121 Elmside Pass,Vänersborg,462 22,+46 (957) 224-9785,bmahaffeyog@nifty.com,http://time.com,+48 (221) 530-0451
Dominion Diamond Corporation,5 Morning Place,Huaitu,,+86 (550) 516-2545,awebbyoh@nydailynews.com,https://ehow.com,+420 (220) 967-5310
"Columbia Property Trust, Inc.",9776 Mariners Cove Parkway,Yungaisi,,+86 (393) 793-8275,snormanselloi@ucla.edu,https://sphinn.com,+86 (502) 625-9675
"Real Goods Solar, Inc.",1 Merry Road,Ash Shaḩānīyah,,+974 (354) 695-7736,mhargroveoj@sciencedaily.com,https://google.de,+265 (940) 555-6159
National General Holdings Corp,82 Golf Course Alley,Avignon,84092 CEDEX 9,+33 (136) 587-7807,rkarchewskiok@shutterfly.com,http://jimdo.com,+351 (147) 727-6606
Tsakos Energy Navigation Ltd,8845 Green Trail,Xiangshan,,+86 (983) 773-5680,jtolefreeol@meetup.com,http://dell.com,+86 (987) 509-7212
Credit Suisse AG,7 Daystar Alley,São Fidélis,28400-000,+55 (350) 238-0918,etetfordom@google.co.jp,http://freewebs.com,+254 (970) 123-7816
"Del Frisco's Restaurant Group, Inc.",4 Homewood Plaza,Bieqiao,,+86 (448) 155-8459,dlightmanon@xing.com,http://spotify.com,+7 (980) 538-3224
Avista Corporation,46109 Swallow Point,Cisiec,34-383,+48 (900) 733-1161,awhilesoo@boston.com,http://netvibes.com,+51 (188) 783-5412
Shaw Communications Inc.,50 Rockefeller Pass,Psychikó,,+30 (232) 515-3070,wsudworthop@cam.ac.uk,http://merriam-webster.com,+86 (566) 108-3005
Senior Housing Properties Trust,993 Laurel Park,Houxixi,,+86 (648) 422-5551,esybbeoq@t-online.de,http://house.gov,+61 (389) 336-6082
BalckRock Taxable Municipal Bond Trust,4 Artisan Pass,Doloon,,+976 (777) 437-9639,pbailor@dell.com,http://imageshack.us,+86 (168) 592-1052
"Marinus Pharmaceuticals, Inc.",09810 Pennsylvania Place,Anle,,+86 (671) 295-6144,fconrardos@theguardian.com,https://flavors.me,+373 (826) 947-7812
"Deswell Industries, Inc.",80209 Goodland Avenue,Blang Dalam,,+62 (158) 151-8108,jlawleffot@wsj.com,http://liveinternet.ru,+7 (693) 516-0955
Brink's Company (The),619 Mesta Road,Senduro,,+62 (251) 107-0573,curwinou@typepad.com,https://hugedomains.com,+55 (296) 662-6165
Vantage Energy Acquisition Corp.,91149 Bunker Hill Road,Thành Phố Lạng Sơn,,+84 (229) 723-5558,sroiznov@baidu.com,https://princeton.edu,+86 (596) 548-8511
"Healthcare Services Group, Inc.",2 Linden Alley,Jedung,,+62 (947) 461-8710,acrottyow@odnoklassniki.ru,http://foxnews.com,+66 (775) 453-1895
Fifth Street Finance Corp.,6 School Street,Digne-les-Bains,04004 CEDEX,+33 (996) 824-6430,ilestrangeox@mediafire.com,https://cargocollective.com,+51 (115) 672-9869
Norwegian Cruise Line Holdings Ltd.,3244 Corry Way,Bojonglarang,,+62 (416) 459-0625,ahailwoodoy@pinterest.com,http://xrea.com,+30 (842) 516-5311
MSG Networks Inc.,926 Crowley Drive,La Ceja,055018,+57 (867) 145-6877,mmonshalloz@netvibes.com,http://furl.net,+63 (758) 745-7236
Trans World Entertainment Corp.,3 Monument Circle,Dongting,,+86 (884) 104-3443,jspallp0@mlb.com,https://youtube.com,+52 (681) 362-8968
"Energizer Holdings, Inc.",96 American Road,Babirik,,+62 (693) 601-5868,fmylechreestp1@blogtalkradio.com,https://hc360.com,+86 (650) 244-7199
"Premier Financial Bancorp, Inc.",4179 Montana Point,Ciburial,,+62 (672) 132-6605,cmushetp2@comcast.net,https://eepurl.com,+86 (767) 534-5936
Associated Banc-Corp,6806 Elgar Way,Farkaždin,,+381 (930) 870-7023,ibellangerp3@infoseek.co.jp,http://ted.com,+7 (695) 741-0212
China Southern Airlines Company Limited,27 Maryland Terrace,Ergates,,+357 (343) 582-2291,ncordobap4@reference.com,https://uol.com.br,+355 (815) 379-0957
Coty Inc.,15 Logan Road,Wukang,,+86 (556) 974-2595,plumleyp5@goo.gl,http://google.pl,+86 (376) 632-6631
Scorpio Bulkers Inc.,76 John Wall Way,Otan Aiyegbaju,,+234 (543) 730-0110,zshorlandp6@state.tx.us,https://examiner.com,+372 (306) 628-8878
Madison Covered Call & Equity Strategy Fund,6278 Spenser Lane,Uvira,,+242 (517) 348-4832,jhaylandp7@smh.com.au,https://usda.gov,+86 (217) 620-8648
"Oclaro, Inc.",0743 Farwell Road,Banjar Tibubiyu Kaja,,+62 (733) 944-8705,cjennerp8@google.fr,https://posterous.com,+86 (641) 332-0980
Norbord Inc.,445 Red Cloud Pass,Sanankerto,,+62 (390) 927-2818,ckubachp9@irs.gov,http://about.me,+375 (902) 236-7921
"Barnes & Noble Education, Inc",159 Chive Point,Bulgan,,+976 (130) 184-2579,tferberpa@vkontakte.ru,http://umich.edu,+7 (642) 737-9732
CrossAmerica Partners LP,14 Moland Pass,El Adelanto,22009,+502 (657) 601-8716,fspieghtpb@about.com,http://usnews.com,+54 (976) 588-6494
"Align Technology, Inc.",79 Merry Center,Aparecida de Goiânia,74900-000,+55 (375) 892-4819,tbrixhampc@digg.com,https://youku.com,+380 (405) 952-5665
"SmartFinancial, Inc.",27971 Eagle Crest Court,Tambaksumur,,+62 (188) 938-8596,smclugaishpd@pinterest.com,https://blogger.com,+62 (708) 562-5066
Nuveen All Cap Energy MLP Opportunities Fund,6836 Mcbride Way,Gimo,747 43,+46 (675) 443-6526,alaurenzpe@google.pl,http://nps.gov,+62 (162) 825-4749
"Fuel Tech, Inc.",8681 Lakeland Street,Lipnica Wielka,34-483,+48 (302) 692-7841,ljeckellpf@ihg.com,http://dmoz.org,+48 (110) 459-2405
Teekay Offshore Partners L.P.,900 Roth Drive,Guohuan,,+86 (349) 545-4262,lgoodhandpg@vistaprint.com,https://youtube.com,+92 (752) 826-3355
"JPMorgan China Region Fund, Inc.",6133 Acker Lane,Utrecht (stad),3550,+31 (822) 456-1845,jwillstropph@shinystat.com,https://storify.com,+63 (271) 534-7605
Aercap Holdings N.V.,127 Lake View Alley,Vetluzhskiy,157510,+7 (647) 129-7035,jstermanpi@google.com.br,http://nsw.gov.au,+86 (607) 126-8915
Lancaster Colony Corporation,35290 Dottie Place,Tovačov,752 01,+420 (137) 267-2583,rkitchenhampj@globo.com,https://spiegel.de,+1 (418) 591-2323
"Soligenix, Inc.",9864 Pine View Avenue,San Francisco,94121,+1 (858) 157-2085,bwhittapk@webs.com,http://cornell.edu,+374 (492) 157-6985
WisdomTree Interest Rate Hedged High Yield Bond Fund,88972 Goodland Drive,Grenoble,38816 CEDEX 1,+33 (358) 398-7214,dgremanepl@msn.com,http://washingtonpost.com,+62 (485) 916-4308
"Health Insurance Innovations, Inc.",49945 Dunning Street,Mojokerto,,+62 (357) 752-2139,jkerinspm@imgur.com,https://dyndns.org,+351 (789) 700-9460
Nuveen Ohio Quality Municipal Income Fund,23098 Springview Plaza,Kālābāgh,42360,+92 (385) 696-1126,agoulderpn@freewebs.com,https://posterous.com,+1 (182) 159-0150
Affimed N.V.,7 John Wall Lane,El Cortezo,,+507 (468) 296-7328,estaddenpo@blogtalkradio.com,http://weather.com,+86 (897) 107-5076
"Zogenix, Inc.",79 Oakridge Crossing,Brasília,70000-000,+55 (108) 137-4500,rcarouspp@yale.edu,http://themeforest.net,+358 (410) 511-0751
"Beasley Broadcast Group, Inc.",59 Mayfield Way,Greensboro,27404,+1 (336) 863-3432,gsturmpq@bluehost.com,http://illinois.edu,+86 (749) 789-6578
Liberty Interactive Corporation,0223 Arrowood Hill,Cimongkor,,+62 (203) 254-6336,rcholoninpr@rakuten.co.jp,https://yellowpages.com,+33 (499) 211-0200
NeoPhotonics Corporation,3 Goodland Lane,Cijapar,,+62 (547) 736-1800,sdundonps@google.co.jp,https://jigsy.com,+255 (903) 750-6193
Potash Corporation of Saskatchewan Inc.,3481 Sage Trail,Malgobek,386340,+7 (886) 104-1368,wrubinlichtpt@irs.gov,http://facebook.com,+62 (119) 284-5938
MSB Financial Corp.,7 Dexter Trail,Sakule,,+381 (149) 703-0549,mgrimsleypu@irs.gov,http://columbia.edu,+48 (699) 790-8839
Tenaris S.A.,758 Corben Alley,Klevan’,,+380 (712) 212-6745,rmacclanceypv@jimdo.com,http://ustream.tv,+7 (628) 740-2154
Saratoga Investment Corp,7591 Esker Alley,Černošín,349 01,+420 (477) 236-3668,fivelpw@imgur.com,https://live.com,+62 (206) 695-9991
MDC Partners Inc.,6 Coolidge Point,Xiayang,,+86 (393) 359-6724,egoulbornpx@accuweather.com,https://hud.gov,+255 (689) 869-9739
Zions Bancorporation,68 Merry Center,Calaoagan,1107,+63 (427) 164-5182,affoulkespy@ycombinator.com,http://woothemes.com,+33 (641) 326-9270
"BroadVision, Inc.",82 Swallow Park,Aktogay,,+7 (461) 522-4533,cfranzettoinipz@dmoz.org,https://businessinsider.com,+63 (947) 759-8087
"JPMorgan China Region Fund, Inc.",8747 Valley Edge Alley,Larnaca,,+357 (177) 632-9072,omccrorieq0@icio.us,http://fda.gov,+46 (312) 131-0697
Arbutus Biopharma Corporation,3561 Mendota Drive,Suvorov,301439,+7 (119) 250-8894,billistonq1@ovh.net,http://salon.com,+36 (839) 783-3756
"Maximus, Inc.",186 Esch Crossing,Cláudio,35530-000,+55 (216) 771-9212,sstockneyq2@blinklist.com,http://icio.us,+234 (321) 939-4187
Washington Prime Group Inc.,1 Sycamore Trail,Haridimun,,+62 (616) 480-9535,jtolfreyq3@godaddy.com,https://dmoz.org,+62 (345) 506-6935
VelocityShares 3x Inverse Gold ETN,56217 Leroy Center,Tit Mellil,,+212 (672) 106-8948,cpearneq4@wunderground.com,https://ebay.com,+1 (301) 449-2297
John Hancock Financial Opportunities Fund,67 Elka Lane,Mixco,01057,+502 (289) 726-2428,cdalessioq5@quantcast.com,https://noaa.gov,+53 (507) 521-5300
"Zogenix, Inc.",31 Arkansas Park,Imām Şāḩib,,+93 (686) 189-3442,rclellandq6@google.it,https://google.it,+675 (955) 717-8906
Quarterhill Inc.,44872 Mccormick Crossing,Cinco Saltos,8303,+54 (863) 405-3801,zmillthorpeq7@drupal.org,http://nature.com,+86 (757) 109-6410
"Biocept, Inc.",757 Mesta Junction,Tubel,,+62 (115) 598-8622,bredwinq8@businessweek.com,http://archive.org,+358 (875) 644-5605
Dataram Corporation,71457 Northridge Crossing,Bayang,9309,+63 (410) 522-3393,acouserq9@dropbox.com,http://rediff.com,+66 (366) 889-6096
"Xenith Bankshares, Inc.",7432 Dayton Trail,Tomobe,319-1304,+81 (743) 840-1997,gpenhearowqa@squarespace.com,http://weibo.com,+86 (930) 309-9423
Turquoise Hill Resources Ltd.,4 Russell Plaza,Lixi,,+86 (795) 154-2447,ewhaleyqb@toplist.cz,http://vimeo.com,+375 (567) 368-8723
"Key Energy Services, Inc.",45 Straubel Avenue,Trâu Quỳ,,+84 (832) 852-5698,wnodesqc@macromedia.com,https://360.cn,+55 (574) 119-9552
"Aviragen Therapeutics, Inc.",512 Elgar Pass,Shtip,2000,+389 (179) 849-9986,acattachqd@smugmug.com,https://1und1.de,+63 (945) 225-0303
"Kulicke and Soffa Industries, Inc.",8809 High Crossing Alley,Bondokodi,,+62 (832) 499-4318,barnaudotqe@nasa.gov,http://toplist.cz,+33 (743) 789-9711
Abercrombie & Fitch Company,0 Dovetail Court,Yelabuga,423638,+7 (314) 910-8085,dbourdiceqf@homestead.com,https://etsy.com,+7 (156) 981-3212
"Tortoise MLP Fund, Inc.",82690 Transport Trail,Nynäshamn,149 81,+46 (638) 690-7398,ddibiaggiqg@ibm.com,http://discuz.net,+48 (848) 204-5727
"Prologis, Inc.",816 Center Junction,Örebro,700 15,+46 (114) 891-7248,nseemmondsqh@icio.us,https://dmoz.org,+507 (365) 873-2365
"Blackhawk Network Holdings, Inc.",29291 Morningstar Junction,Trinidad,,+53 (587) 689-3677,jhilbourneqi@hostgator.com,https://dailymotion.com,+62 (512) 312-5389
Bank of America Corporation,4 Evergreen Street,‘Aqrah,,+964 (273) 635-8526,pturfreyqj@bloglines.com,https://uiuc.edu,+86 (224) 549-3844
Capital Southwest Corporation,0958 Anzinger Street,Malakal,,+249 (232) 364-3630,ekerleyqk@clickbank.net,http://mayoclinic.com,+57 (644) 127-2495
"Care.com, Inc.",0 Melby Avenue,Galátsi,,+30 (510) 448-4255,tigoeql@geocities.jp,https://accuweather.com,+86 (996) 903-1456
"Brinker International, Inc.",03225 Weeping Birch Parkway,Asino,636845,+7 (366) 847-9959,ishottonqm@sina.com.cn,http://mashable.com,+62 (959) 135-3046
Vanguard Russell 2000 Growth ETF,41 Florence Junction,Laau,,+62 (979) 469-1613,gtivnanqn@who.int,http://e-recht24.de,+7 (330) 332-8710
"Entergy Mississippi, Inc.",9 Vermont Street,Shchukino,452034,+7 (781) 139-7360,wpavlovqo@tinypic.com,https://netvibes.com,+44 (484) 309-9785
"Stag Industrial, Inc.",5 Holy Cross Point,San Simon,2015,+63 (909) 523-2189,vstephensqp@sciencedirect.com,https://4shared.com,+385 (651) 456-9774
Centrais Electricas Brasileiras S.A.- Eletrobras,221 Northland Road,Gigant,144005,+7 (903) 461-3669,falbuttqq@creativecommons.org,https://free.fr,+86 (853) 687-5253
"Griffin Industrial Realty, Inc.",11 Anhalt Court,Chengzihe,,+86 (958) 957-0300,mrousbyqr@spotify.com,http://wikispaces.com,+1 (410) 283-2038
GGP Inc.,1338 Kensington Court,Židlochovice,667 01,+420 (982) 653-9527,myendleqs@auda.org.au,https://friendfeed.com,+1 (840) 760-9683
Eagle Point Credit Company Inc.,02 Gulseth Way,Tianchi,,+86 (453) 620-4685,bjensonqt@multiply.com,https://skyrock.com,+33 (439) 543-7395
Educational Development Corporation,83060 Rowland Junction,Glotovka,182170,+7 (326) 547-5548,smeusequ@cnbc.com,https://cargocollective.com,+55 (735) 543-7394
"TerraForm Global, Inc.",5331 Green Place,Libuganon,6615,+63 (131) 271-1537,ilesperqv@g.co,https://cdbaby.com,+62 (871) 124-3376
Taiwan Semiconductor Manufacturing Company Ltd.,9960 Roth Court,Rubik,,+355 (884) 255-5400,surridgeqw@nymag.com,https://xinhuanet.com,+86 (447) 208-1996
Foamix Pharmaceuticals Ltd.,5159 Nelson Drive,Henghe,,+86 (245) 629-6062,lcantrillqx@uiuc.edu,http://spotify.com,+33 (734) 456-8891
Nuveen Massachusetts Municipal Income Fund,46789 Myrtle Junction,Bangelan,,+62 (288) 910-6252,gdurnanqy@gmpg.org,http://ustream.tv,+48 (281) 239-6907
BankFinancial Corporation,660 Ramsey Court,Tarusan,1151,+63 (753) 840-6077,gcoringtonqz@who.int,http://vkontakte.ru,+351 (876) 563-4051
Brown Forman Corporation,3 Monica Lane,Tõrva,,+372 (780) 441-3347,kfreezorr0@weebly.com,http://globo.com,+255 (581) 693-7920
"Cable One, Inc.",2 Hovde Park,Pensacola,32590,+1 (850) 640-7188,roverthrowr1@google.com,https://cdc.gov,+380 (583) 339-9897
Ovid Therapeutics Inc.,69 Dawn Lane,Boulsa,,+226 (527) 330-6002,nklewir2@amazon.co.uk,http://cisco.com,+595 (678) 887-5095
Great Lakes Dredge & Dock Corporation,1556 Holy Cross Center,Jiang’an,,+86 (457) 334-9784,veleyr3@sphinn.com,http://flickr.com,+51 (176) 876-0764
WisdomTree Interest Rate Hedged High Yield Bond Fund,064 Amoth Hill,Trzebnica,55-100,+48 (692) 493-3856,kgoldesr4@sciencedirect.com,http://china.com.cn,+351 (993) 645-7187
"Finjan Holdings, Inc.",7 Farmco Avenue,Manggissari,,+62 (294) 878-8065,lgetshamr5@chron.com,https://trellian.com,+7 (545) 135-3641
Eagle Bulk Shipping Inc.,967 Straubel Avenue,Bus’k,,+380 (688) 385-7682,sjanauschekr6@bravesites.com,http://deviantart.com,+7 (402) 941-7628
Exa Corporation,77 Gale Terrace,Inyati,,+263 (180) 227-4773,ewinshipr7@google.ru,https://slideshare.net,+30 (327) 900-0551
VWR Corporation,760 Basil Pass,Xianju,,+86 (984) 923-8763,nforbesr8@cam.ac.uk,https://eventbrite.com,+86 (637) 581-1160
"Angie's List, Inc.",98 Colorado Hill,Koga,869-0233,+81 (513) 265-0036,mspinor9@sourceforge.net,http://xinhuanet.com,+33 (684) 688-8898
iShares MSCI Europe Small-Cap ETF,18 Crowley Trail,Inanwatan,,+62 (819) 534-3260,dfreundra@salon.com,https://livejournal.com,+33 (608) 285-0775
Mercantile Bank Corporation,5 Sycamore Point,Yinjiaxi,,+86 (413) 274-8136,rkendrewrb@ask.com,https://addthis.com,+226 (924) 321-9303
Tenaris S.A.,04062 Trailsway Avenue,Sanjing,,+86 (843) 154-7115,pmongeotrc@bloglines.com,https://illinois.edu,+591 (628) 181-0246
Vertex Pharmaceuticals Incorporated,6 Leroy Hill,Mbouda,,+237 (165) 450-5961,rabercrombierd@fc2.com,http://goodreads.com,+33 (406) 916-4299
Denbury Resources Inc.,5 Holy Cross Way,Bagarmossen,128 48,+46 (637) 207-6629,vmcgaughayre@nhs.uk,https://dropbox.com,+63 (556) 886-2092
First Trust NASDAQ Technology Dividend Index Fund,98 Pleasure Alley,Sovetskaya Gavan’,682803,+7 (935) 451-5645,clancetterrf@about.me,https://seesaa.net,+86 (590) 808-0293
Capitala Finance Corp.,460 Stuart Point,Otaru,869-1203,+81 (676) 880-8961,mlightmanrg@qq.com,https://discovery.com,+84 (714) 408-4498
ZTO Express (Cayman) Inc.,55 Commercial Street,Jiangxi,,+86 (382) 101-2798,pmearsrh@chicagotribune.com,http://sun.com,+92 (557) 188-2562
Cinedigm Corp,621 Huxley Terrace,Ábrego,546079,+57 (585) 581-3260,meastburyri@w3.org,http://bizjournals.com,+62 (255) 961-4130
"Fuel Tech, Inc.",7636 Alpine Lane,Talangnan,6028,+63 (681) 142-1889,ucrockrj@earthlink.net,http://t-online.de,+53 (546) 516-5714
The9 Limited,464 Grayhawk Point,San Miguel,8301,+63 (305) 121-3165,cboulderrk@moonfruit.com,https://paginegialle.it,+7 (638) 465-5526
"Revance Therapeutics, Inc.",629 Monterey Street,Huangnaihai,,+86 (970) 200-5932,mlocknerrl@drupal.org,https://icq.com,+86 (648) 614-4994
"RCI Hospitality Holdings, Inc.",82706 Columbus Junction,Taganskiy,662327,+7 (454) 925-2030,tbellellirm@thetimes.co.uk,https://ehow.com,+55 (781) 761-2021
"Global Self Storage, Inc.",126 Northport Pass,Norrtälje,761 93,+46 (958) 669-7942,eebanksrn@elegantthemes.com,https://jiathis.com,+62 (890) 733-1060
Nuveen California Quality Municipal Income Fund,8 Butternut Hill,Selopuro,,+62 (153) 989-6650,bbanfillro@typepad.com,http://scientificamerican.com,+55 (962) 472-5973
"United Bankshares, Inc.",1 Harbort Court,Las Vegas,,+504 (976) 483-7700,faasafrp@jugem.jp,https://w3.org,+972 (648) 108-7997
Open Text Corporation,9 Arapahoe Pass,Asmara,,+291 (317) 376-3629,tbyrchrq@yellowpages.com,https://wordpress.org,+55 (814) 323-9594
"Washington Trust Bancorp, Inc.",656 Miller Avenue,Prang Ku,33170,+66 (746) 510-3753,trymourrr@topsy.com,https://addtoany.com,+7 (851) 982-1919
